{"type":"FeatureCollection", "features": [
{"type":"Feature","geometry":{"type":"Point","coordinates":[101.7061576,3.1398734]},"properties":{"@id":"node/28930701","light_rail":"yes","name":"Hang Tuah","name:en":"Hang Tuah","name:ja":"ハン・トゥア","name:ms":"Hang Tuah","name:ms-Arab":"هڠ تواه","name:ta":"ஹங் துஅஹ்","name:zh":"汉都亚","name:zh-Hans":"汉都亚","name:zh-Hant":"漢都亞","public_transport":"stop_position","railway":"stop","ref":"AG9;SP9","wikidata":"Q27142","wikipedia":"en:BBCC-Hang Tuah station"},"id":"node/28930701"},
{"type":"Feature","geometry":{"type":"Point","coordinates":[101.6944464,3.1555465]},"properties":{"@id":"node/243234879","light_rail":"yes","name":"Bandaraya","name:en":"Bandaraya","name:ms":"Bandaraya","name:ms-Arab":"بندارايا","name:zh":"市政局","name:zh-Hans":"市政局","name:zh-Hant":"市政局","public_transport":"stop_position","railway":"stop","ref":"AG6;SP6","wikidata":"Q4854452","wikipedia":"en:Bandaraya LRT station"},"id":"node/243234879"},
{"type":"Feature","geometry":{"type":"Point","coordinates":[101.6941266,3.1611848]},"properties":{"@id":"node/243234896","light_rail":"yes","name":"Sultan Ismail","name:en":"Sultan Ismail","name:ms":"Sultan Ismail","name:ms-Arab":"سلطان اسماعيل","name:zh":"苏丹依斯迈","name:zh-Hans":"苏丹依斯迈","name:zh-Hant":"蘇丹依斯邁","public_transport":"stop_position","railway":"stop","ref":"AG5;SP5"},"id":"node/243234896"},
{"type":"Feature","geometry":{"type":"Point","coordinates":[101.7243612,3.2312221]},"properties":{"@id":"node/243237659","light_rail":"yes","name":"Gombak","name:en":"Gombak","name:ms":"Gombak","name:zh":"鹅唛","name:zh-Hans":"鹅唛","name:zh-Hant":"鵝嘜","public_transport":"stop_position","railway":"stop","ref":"KJ1"},"id":"node/243237659"},
{"type":"Feature","geometry":{"type":"Point","coordinates":[101.7319177,3.2058319]},"properties":{"@id":"node/243238173","light_rail":"yes","name":"Wangsa Maju","name:ms":"Wangsa Maju","name:zh":"旺沙玛珠","name:zh-Hans":"旺沙玛珠","name:zh-Hant":"旺沙瑪珠","public_transport":"stop_position","railway":"stop","ref":"KJ3","wikidata":"Q1054313","wikipedia":"en:Wangsa Maju LRT station"},"id":"node/243238173"},
{"type":"Feature","geometry":{"type":"Point","coordinates":[101.737283,3.1991345]},"properties":{"@id":"node/243238358","light_rail":"yes","name":"Sri Rampai","name:en":"Sri Rampai","name:ms":"Sri Rampai","name:ms-Arab":"سري رامڤأي","name:zh":"南北花园","name:zh-Hans":"南北花园","name:zh-Hant":"南北花園","public_transport":"stop_position","railway":"stop","ref":"KJ4","wikidata":"Q7586225","wikipedia":"en:Sri Rampai LRT station"},"id":"node/243238358"},
{"type":"Feature","geometry":{"type":"Point","coordinates":[101.7191397,3.1601306]},"properties":{"@id":"node/243239371","light_rail":"yes","name":"Ampang Park","name:en":"Ampang Park","name:ms":"Ampang Park","name:ms-Arab":"امڤاڠ ڤرق","name:zh":"安邦购物中心","name:zh-Hans":"安邦购物中心","name:zh-Hant":"安邦購物中心","public_transport":"stop_position","railway":"stop","ref":"KJ9","wikidata":"Q1054301","wikipedia":"en:Ampang Park station"},"id":"node/243239371"},
{"type":"Feature","geometry":{"type":"Point","coordinates":[101.7133583,3.1593097]},"properties":{"@id":"node/243239454","light_rail":"yes","name":"KLCC","name:en":"KLCC","name:ms":"KLCC","name:ms-Arab":"كي ايل سي سي","name:zh":"城中城","name:zh-Hans":"城中城","name:zh-Hant":"城中城","public_transport":"stop_position","railway":"stop","ref":"KJ10","wikidata":"Q1054307","wikipedia":"en:KLCC LRT station"},"id":"node/243239454"},
{"type":"Feature","geometry":{"type":"Point","coordinates":[101.7067864,3.1613773]},"properties":{"@id":"node/243239546","light_rail":"yes","name":"Kampung Baru","name:en":"Kampung Baru","name:ms":"Kampung Baru","name:ms-Arab":"كامڤوڠ بارو","name:zh":"甘榜峇鲁","name:zh-Hans":"甘榜峇鲁","name:zh-Hant":"甘榜峇魯","public_transport":"stop_position","railway":"stop","ref":"KJ11","wikidata":"Q1055063","wikipedia":"en:Kampung Baru LRT station"},"id":"node/243239546"},
{"type":"Feature","geometry":{"type":"Point","coordinates":[101.6685127,3.1154873]},"properties":{"@id":"node/662222478","light_rail":"yes","name":"Kerinchi","name:en":"Kerinchi","name:ms":"Kerinchi","name:ms-Arab":"كرينچي","name:zh":"格灵芝","name:zh-Hans":"格灵芝","name:zh-Hant":"格靈芝","public_transport":"stop_position","railway":"stop","ref":"KJ18","wikidata":"Q6131677","wikipedia":"en:Kerinchi LRT station"},"id":"node/662222478"},
{"type":"Feature","geometry":{"type":"Point","coordinates":[101.6617041,3.1146154]},"properties":{"@id":"node/662222487","light_rail":"yes","name":"Universiti","name:en":"Universiti","name:ms":"Universiti","name:ms-Arab":"اونيۏرسيتي","name:zh":"大学","name:zh-Hans":"大学","name:zh-Hant":"大學","operator":"Rapid KL","public_transport":"stop_position","railway":"stop","ref":"KJ19","wikidata":"Q6131847","wikipedia":"en:Universiti LRT station, Kuala Lumpur"},"id":"node/662222487"},
{"type":"Feature","geometry":{"type":"Point","coordinates":[101.7244105,3.1645256]},"properties":{"@id":"node/778101694","light_rail":"yes","name":"Damai","name:en":"Damai","name:ms":"Damai","name:ms-Arab":"داماي","name:zh":"达迈","name:zh-Hans":"达迈","name:zh-Hant":"達邁","network":"Kelana Jaya Line","public_transport":"stop_position","railway":"stop","ref":"KJ8","wikidata":"Q5211926","wikipedia":"en:Damai LRT station (Malaysia)"},"id":"node/778101694"},
{"type":"Feature","geometry":{"type":"Point","coordinates":[101.7318764,3.1650729]},"properties":{"@id":"node/778101703","light_rail":"yes","name":"Dato' Keramat","name:en":"Dato' Keramat","name:ms":"Dato' Keramat","name:ms-Arab":"داتوء كرامات","name:ta":"ட்டோ கேரமாத்","name:zh":"拿督克拉末","name:zh-Hans":"拿督克拉末","name:zh-Hant":"拿督克拉末","public_transport":"stop_position","railway":"stop","ref":"KJ7","wikidata":"Q5227689","wikipedia":"en:Dato' Keramat LRT station"},"id":"node/778101703"},
{"type":"Feature","geometry":{"type":"Point","coordinates":[101.7352694,3.1673188]},"properties":{"@id":"node/778101715","light_rail":"yes","name":"Jelatek","name:en":"Jelatek","name:ms":"Jelatek","name:zh":"遮拉迪","name:zh-Hans":"遮拉迪","name:zh-Hant":"遮拉迪","public_transport":"stop_position","railway":"stop","ref":"KJ6"},"id":"node/778101715"},
{"type":"Feature","geometry":{"type":"Point","coordinates":[101.7359468,3.1757346]},"properties":{"@id":"node/778106533","light_rail":"yes","name":"Setiawangsa","name:ms":"Setiawangsa","name:zh":"斯迪亚旺沙","name:zh-Hans":"斯迪亚旺沙","name:zh-Hant":"斯迪亞旺沙","public_transport":"stop_position","railway":"stop","ref":"KJ5","wikidata":"Q7456705","wikipedia":"en:Setiawangsa LRT station"},"id":"node/778106533"},
{"type":"Feature","geometry":{"type":"Point","coordinates":[101.7018698,3.1568984]},"properties":{"@id":"node/902315637","light_rail":"yes","name":"Dang Wangi","name:en":"Dang Wangi","name:ms":"Dang Wangi","name:ms-Arab":"دڠ واڠي","name:zh":"金马律","name:zh-Hans":"金马律","name:zh-Hant":"金馬律","public_transport":"stop_position","railway":"stop","ref":"KJ12","wikidata":"Q1055068","wikipedia":"en:Dang Wangi LRT station"},"id":"node/902315637"},
{"type":"Feature","geometry":{"type":"Point","coordinates":[101.6452957,3.1040426]},"properties":{"@id":"node/1523290736","light_rail":"yes","name":"Taman Jaya","name:ckb":"再也花園","name:en":"Taman Jaya","name:ms":"Taman Jaya","name:ta":"தமன் ஜெயா","name:zh":"再也花园","name:zh-Hans":"再也花园","operator":"Rapid KL","public_transport":"stop_position","railway":"stop","ref":"KJ20","wikidata":"Q7680629","wikipedia":"en:Taman Jaya LRT station"},"id":"node/1523290736"},
{"type":"Feature","geometry":{"type":"Point","coordinates":[101.6969257,3.149999]},"properties":{"@id":"node/1537737630","full_name":"Masjid Jamek LRT Station","light_rail":"yes","name":"Masjid Jamek","name:en":"Masjid Jamek","name:ms":"Masjid Jamek","name:ms-Arab":"مسجد جامع","name:zh":"占美清真寺","name:zh-Hans":"占美清真寺","name:zh-Hant":"占美清真寺","network":"Kelana Jaya Line","operator":"Rapid KL","public_transport":"stop_position","railway":"stop","ref":"KJ13","wikidata":"Q1055044","wikipedia":"en:Masjid Jamek LRT station"},"id":"node/1537737630"},
{"type":"Feature","geometry":{"type":"Point","coordinates":[101.6790739,3.1275581]},"properties":{"@id":"node/1537844229","light_rail":"yes","name":"Bangsar","name:en":"Bangsar","name:ms":"Bangsar","name:ms-Arab":"بڠسر","name:zh":"孟沙","name:zh-Hans":"孟沙","name:zh-Hant":"孟沙","public_transport":"stop_position","railway":"stop","ref":"KJ16","wikidata":"Q4855626","wikipedia":"en:Bank Rakyat-Bangsar LRT station"},"id":"node/1537844229"},
{"type":"Feature","geometry":{"type":"Point","coordinates":[101.6729169,3.1187593]},"properties":{"@id":"node/1537844232","light_rail":"yes","name":"Abdullah Hukum","name:en":"Abdullah Hukum","name:ms":"Abdullah Hukum","name:ms-Arab":"عبدالله حكوم","name:zh":"阿都拉胡坤","name:zh-Hans":"阿都拉胡坤","name:zh-Hant":"阿都拉胡坤","operator":"Rapid KL","public_transport":"stop_position","railway":"stop","ref":"KJ17"},"id":"node/1537844232"},
{"type":"Feature","geometry":{"type":"Point","coordinates":[101.6231638,3.104684]},"properties":{"@id":"node/1537848372","light_rail":"yes","name":"Taman Paramount","name:zh":"百乐花园","network":"Kelana Jaya Line","operator":"Rapid KL","public_transport":"stop_position","railway":"stop","ref":"KJ22"},"id":"node/1537848372"},
{"type":"Feature","geometry":{"type":"Point","coordinates":[101.6127123,3.1106788]},"properties":{"@id":"node/1537849706","light_rail":"yes","name":"Taman Bahagia","name:ms":"Taman Bahagia","name:zh":"幸福花园","name:zh-Hans":"幸福花园","name:zh-Hant":"幸福花園","network":"Kelana Jaya Line","operator":"Rapid KL","public_transport":"stop_position","railway":"stop","ref":"KJ23","wikidata":"Q986438","wikipedia":"en:Taman Bahagia LRT station"},"id":"node/1537849706"},
{"type":"Feature","geometry":{"type":"Point","coordinates":[101.6045057,3.1125138]},"properties":{"@id":"node/1537851454","light_rail":"yes","name":"Kelana Jaya","name:en":"Kelana Jaya","name:ms":"Kelana Jaya","name:zh":"格拉那再也","name:zh-Hans":"格拉那再也","name:zh-Hant":"格拉那再也","public_transport":"stop_position","railway":"stop","ref":"KJ24","wikidata":"Q986580","wikipedia":"en:Kelana Jaya LRT station"},"id":"node/1537851454"},
{"type":"Feature","geometry":{"type":"Point","coordinates":[101.6952529,3.173587]},"properties":{"@id":"node/2364022009","light_rail":"yes","name":"Titiwangsa","name:en":"Titiwangsa","name:ms":"Titiwangsa","name:ms-Arab":"تيتيوڠسا","name:zh":"蒂蒂旺沙","name:zh-Hans":"蒂蒂旺沙","name:zh-Hant":"蒂蒂旺沙","operator":"Rapid KL","public_transport":"stop_position","railway":"stop","ref":"AG3;SP3","wikidata":"Q27144","wikipedia":"en:Titiwangsa station"},"id":"node/2364022009"},
{"type":"Feature","geometry":{"type":"Point","coordinates":[101.7120511,3.1349483]},"properties":{"@id":"node/2575356400","light_rail":"yes","name":"Pudu","name:en":"Pudu","name:ja":"プドゥ","name:ms":"Pudu","name:ms-Arab":"ڤودو","name:ta":"புது","name:zh":"半山芭","name:zh-Hans":"半山芭","name:zh-Hant":"半山芭","public_transport":"stop_position","railway":"stop","ref":"AG10;SP10","wikidata":"Q6150815","wikipedia":"en:Pudu LRT station"},"id":"node/2575356400"},
{"type":"Feature","geometry":{"type":"Point","coordinates":[101.6964028,3.1494677]},"properties":{"@id":"node/2576906197","light_rail":"yes","name":"Masjid Jamek (AG SP)","name:en":"Masjid Jamek (AG SP)","name:ja":"マスジット・ジャメ","name:ms":"Masjid Jamek","name:ms-Arab":"مسجد جامع (لالوان امڤاڠ)","name:ta":"ஜமேக் மசூதி","name:zh":"占美清真寺","name:zh-Hans":"占美清真寺","name:zh-Hant":"占美清真寺","public_transport":"stop_position","railway":"stop","ref":"AG7;SP7","station":"light_rail","wikidata":"Q1055044","wikipedia":"en:Masjid Jamek LRT station"},"id":"node/2576906197"},
{"type":"Feature","geometry":{"type":"Point","coordinates":[101.7389808,3.1302694]},"properties":{"@id":"node/3001786749","light_rail":"yes","name":"Pandan Jaya","name:ms":"Pandan Jaya","name:zh":"班登再也","name:zh-Hans":"班登再也","name:zh-Hant":"班登再也","public_transport":"stop_position","railway":"stop","ref":"AG14"},"id":"node/3001786749"},
{"type":"Feature","geometry":{"type":"Point","coordinates":[101.7466721,3.1347854]},"properties":{"@id":"node/3001786779","light_rail":"yes","name":"Pandan Indah","name:ms":"Pandan Indah","name:zh":"班登英达","name:zh-Hans":"班登英达","name:zh-Hant":"班登英達","public_transport":"stop_position","railway":"stop","ref":"AG15","wikidata":"Q7130483","wikipedia":"en:Pandan Indah LRT station"},"id":"node/3001786779"},
{"type":"Feature","geometry":{"type":"Point","coordinates":[101.6922163,3.0581476]},"properties":{"@id":"node/3081369956","light_rail":"yes","name":"Bukit Jalil","name:en":"Bukit Jalil","name:ms":"Bukit Jalil","name:ms-Arab":"بوكيت جليل","name:zh":"武吉加里尔","name:zh-Hans":"武吉加里尔","name:zh-Hant":"武吉加里爾","public_transport":"stop_position","railway":"stop","ref":"SP17","wikidata":"Q4986903","wikipedia":"en:Bukit Jalil LRT station"},"id":"node/3081369956"},
{"type":"Feature","geometry":{"type":"Point","coordinates":[101.7322944,3.1043689]},"properties":{"@id":"node/3857515109","name":"Taman Midah","name:en":"Taman Midah","name:ms":"Taman Midah","name:ms-Arab":"تامن ميده","name:zh":"美达花园","name:zh-Hans":"美达花园","name:zh-Hant":"美達花園","public_transport":"stop_position","railway":"stop","ref":"SBK24","subway":"yes","wikidata":"Q22087879","wikipedia":"en:Taman Midah MRT station"},"id":"node/3857515109"},
{"type":"Feature","geometry":{"type":"Point","coordinates":[101.5648201,3.1698808]},"properties":{"@id":"node/3857582244","name":"Kwasa Sentral","name:ms":"Kwasa Sentral","name:zh":"桂莎中央","name:zh-Hans":"桂莎中央","name:zh-Hant":"桂莎中央","public_transport":"stop_position","railway":"stop","ref":"KG05","subway":"yes"},"id":"node/3857582244"},
{"type":"Feature","geometry":{"type":"Point","coordinates":[101.5783791,3.1971674]},"properties":{"@id":"node/3857582302","name":"Kampung Selamat","name:zh":"甘榜士拉玛","old_ref":"SBK02","public_transport":"stop_position","railway":"stop","ref":"PY03","subway":"yes"},"id":"node/3857582302"},
{"type":"Feature","geometry":{"type":"Point","coordinates":[101.5817709,3.2063793]},"properties":{"@id":"node/3857582320","name":"Sungai Buloh (PY)","name:en":"Sungai Buloh (PY)","name:ja":"MRT スンガイ・ブロー","name:ms":"Sungai Buloh (PY)","name:zh":"双溪毛糯（捷运）","name:zh-Hans":"双溪毛糯（捷运）","name:zh-Hant":"雙溪毛糯（捷運）","old_ref":"SBK01","public_transport":"stop_position","railway":"stop","ref":"PY04","subway":"yes","wikidata":"Q6131722","wikipedia":"en:Sungai Buloh station"},"id":"node/3857582320"},
{"type":"Feature","geometry":{"type":"Point","coordinates":[101.5719896,3.0230756]},"properties":{"@id":"node/4036121665","light_rail":"yes","name":"Alam Megah","name:ms":"Alam Megah","name:zh":"美佳园","name:zh-Hans":"美佳园","name:zh-Hant":"美佳園","public_transport":"stop_position","railway":"stop","ref":"KJ35","wikidata":"Q23057832","wikipedia":"en:Alam Megah LRT station"},"id":"node/4036121665"},
{"type":"Feature","geometry":{"type":"Point","coordinates":[101.6210157,3.0480692]},"properties":{"@id":"node/4036346725","light_rail":"yes","name":"IOI Puchong Jaya","name:ms":"IOI Puchong Jaya","name:zh":"IOI蒲种再也","name:zh-Hans":"IOI蒲种再也","name:zh-Hant":"IOI蒲種再也","public_transport":"stop_position","railway":"stop","ref":"SP24"},"id":"node/4036346725"},
{"type":"Feature","geometry":{"type":"Point","coordinates":[101.6706231,3.0621631]},"properties":{"@id":"node/4036399885","light_rail":"yes","name":"Awan Besar","name:en":"Awan Besar","name:ms":"Awan Besar","name:ms-Arab":"اون بسر","name:zh":"阿旺柏沙","name:zh-Hans":"阿旺柏沙","name:zh-Hant":"阿旺柏沙","operator":"Rapid KL","public_transport":"stop_position","railway":"stop","ref":"SP19","wikidata":"Q21005945","wikipedia":"en:Awan Besar LRT station"},"id":"node/4036399885"},
{"type":"Feature","geometry":{"type":"Point","coordinates":[101.6870867,3.061546]},"properties":{"@id":"node/4036399886","light_rail":"yes","name":"Sri Petaling","name:en":"Sri Petaling","name:ms":"Sri Petaling","name:ms-Arab":"سري ڤتاليڠ","name:zh":"大城堡","name:zh-Hans":"大城堡","name:zh-Hant":"大城堡","operator":"Rapid KL","public_transport":"stop_position","railway":"stop","ref":"SP18","wikidata":"Q7586185","wikipedia":"en:Sri Petaling LRT station"},"id":"node/4036399886"},
{"type":"Feature","geometry":{"type":"Point","coordinates":[101.7080096,3.0639348]},"properties":{"@id":"node/4036399888","light_rail":"yes","name":"Sungai Besi","name:en":"Sungai Besi","name:ms":"Sungai Besi","name:ms-Arab":"سوڠاي بسي","name:zh":"新街场","name:zh-Hans":"新街场","name:zh-Hant":"新街場","public_transport":"stop_position","railway":"stop","ref":"SP16","wikidata":"Q7640133","wikipedia":"en:Sungai Besi station"},"id":"node/4036399888"},
{"type":"Feature","geometry":{"type":"Point","coordinates":[101.7113108,3.0760669]},"properties":{"@id":"node/4036400190","light_rail":"yes","name":"Bandar Tasik Selatan","name:en":"Bandar Tasik Selatan","name:ms":"Bandar Tasik Selatan","name:ms-Arab":"بندر تاسيق سلتن","name:zh":"南湖镇","name:zh-Hans":"南湖镇","name:zh-Hant":"南湖鎮","public_transport":"stop_position","railway":"stop","ref":"SP15","wikidata":"Q4854431","wikipedia":"en:Bandar Tasik Selatan station"},"id":"node/4036400190"},
{"type":"Feature","geometry":{"type":"Point","coordinates":[101.7124347,3.089635]},"properties":{"@id":"node/4036400191","light_rail":"yes","name":"Bandar Tun Razak","name:en":"Bandar Tun Razak","name:ms":"Bandar Tun Razak","name:ms-Arab":"بندر تون رازق","name:zh":"敦拉萨镇","name:zh-Hans":"敦拉萨镇","name:zh-Hant":"敦拉薩鎮","public_transport":"stop_position","railway":"stop","ref":"SP14","wikidata":"Q4854435","wikipedia":"en:Bandar Tun Razak LRT station"},"id":"node/4036400191"},
{"type":"Feature","geometry":{"type":"Point","coordinates":[101.7063205,3.1020725]},"properties":{"@id":"node/4036400193","light_rail":"yes","name":"Salak Selatan","name:en":"Salak Selatan","name:ms":"Salak Selatan","name:ms-Arab":"سالق سلاتن‎","name:zh":"沙叻秀","name:zh-Hans":"沙叻秀","name:zh-Hant":"沙叻秀","public_transport":"stop_position","railway":"stop","ref":"SP13","wikidata":"Q7403493","wikipedia":"en:Salak Selatan LRT station"},"id":"node/4036400193"},
{"type":"Feature","geometry":{"type":"Point","coordinates":[101.7143246,3.1127356]},"properties":{"@id":"node/4036400201","light_rail":"yes","name":"Cheras","name:en":"Cheras","name:ms":"Cheras","name:ms-Arab":"چراس","name:zh":"蕉赖","name:zh-Hans":"蕉赖","name:zh-Hant":"蕉賴","public_transport":"stop_position","railway":"stop","ref":"SP12","wikidata":"Q567251","wikipedia":"en:Cheras LRT station"},"id":"node/4036400201"},
{"type":"Feature","geometry":{"type":"Point","coordinates":[101.7156571,3.1277484]},"properties":{"@id":"node/4036400202","light_rail":"yes","name":"Chan Sow Lin","name:en":"Chan Sow Lin","name:ms":"Chan Sow Lin","name:ms-Arab":"چن ساو لين","name:zh":"陈秀连","name:zh-Hans":"陈秀连","name:zh-Hant":"陳秀連","public_transport":"stop_position","railway":"stop","ref":"AG11;SP11","station":"light_rail"},"id":"node/4036400202"},
{"type":"Feature","geometry":{"type":"Point","coordinates":[101.6565198,3.0546854]},"properties":{"@id":"node/4036647826","light_rail":"yes","name":"Alam Sutera","name:ms":"Alam Sutera","name:zh":"阿南苏特拉","name:zh-Hans":"阿南苏特拉","name:zh-Hant":"阿南蘇特拉","public_transport":"stop_position","railway":"stop","ref":"SP21","wikidata":"Q23763025","wikipedia":"en:Alam Sutera LRT station"},"id":"node/4036647826"},
{"type":"Feature","geometry":{"type":"Point","coordinates":[101.6442471,3.0504768]},"properties":{"@id":"node/4036647843","light_rail":"yes","name":"Kinrara BK5","name:en":"Kinrara BK5","name:ms":"Kinrara BK5","name:zh":"金銮第五区","name:zh-Hans":"金銮第五区","name:zh-Hant":"金鑾第五區","public_transport":"stop_position","railway":"stop","ref":"SP22","wikidata":"Q25038320","wikipedia":"en:Kinrara BK 5 LRT station"},"id":"node/4036647843"},
{"type":"Feature","geometry":{"type":"Point","coordinates":[101.6626004,3.0619468]},"properties":{"@id":"node/4036647851","light_rail":"yes","name":"Muhibbah","name:en":"Muhibbah","name:ms":"Muhibbah","name:ms-Arab":"محبه","name:zh":"亲善","name:zh-Hans":"亲善","name:zh-Hant":"親善","public_transport":"stop_position","railway":"stop","ref":"SP20","wikidata":"Q25109920","wikipedia":"en:Muhibbah LRT station"},"id":"node/4036647851"},
{"type":"Feature","geometry":{"type":"Point","coordinates":[101.5786896,3.1501771]},"properties":{"@id":"node/4063187546","name":"Kota Damansara","name:en":"Kota Damansara","name:ms":"Kota Damansara","name:zh":"哥打白沙罗","name:zh-Hans":"哥打白沙罗","name:zh-Hant":"哥打白沙羅","public_transport":"stop_position","railway":"stop","ref":"KG06","subway":"yes"},"id":"node/4063187546"},
{"type":"Feature","geometry":{"type":"Point","coordinates":[101.6653074,3.1509828]},"properties":{"@id":"node/4555795928","name":"Semantan","name:en":"Semantan","name:ms":"Semantan","name:ms-Arab":"سمنتن‎","name:zh":"士曼丹","name:zh-Hans":"士曼丹","name:zh-Hant":"士曼丹","public_transport":"stop_position","railway":"stop","ref":"KG14","subway":"yes","wikidata":"Q22087871","wikipedia":"en:Semantan MRT station"},"id":"node/4555795928"},
{"type":"Feature","geometry":{"type":"Point","coordinates":[101.5724013,3.1764498]},"properties":{"@id":"node/4560707926","name":"Kwasa Damansara","name:en":"Kwasa Damansara","name:ms":"Kwasa Damansara","name:zh":"桂莎白沙罗","name:zh-Hans":"桂莎白沙罗","name:zh-Hant":"桂莎白沙羅","old_ref":"SBK04","public_transport":"stop_position","railway":"stop","ref":"KG04","subway":"yes"},"id":"node/4560707926"},
{"type":"Feature","geometry":{"type":"Point","coordinates":[101.6087371,3.1551861]},"properties":{"@id":"node/4560707928","name":"Mutiara Damansara","name:zh":"珍珠白沙罗","public_transport":"stop_position","railway":"stop","ref":"KG08","subway":"yes"},"id":"node/4560707928"},
{"type":"Feature","geometry":{"type":"Point","coordinates":[101.6187409,3.1466961]},"properties":{"@id":"node/4560707929","name":"Bandar Utama","name:ms":"Bandar Utama","name:zh":"万达镇","name:zh-Hans":"万达镇","name:zh-Hant":"萬達鎮","public_transport":"stop_position","railway":"stop","ref":"KG09","subway":"yes"},"id":"node/4560707929"},
{"type":"Feature","geometry":{"type":"Point","coordinates":[101.6307785,3.1360604]},"properties":{"@id":"node/4560707930","name":"Taman Tun Dr Ismail","name:en":"Taman Tun Dr Ismail","name:ms":"Taman Tun Dr Ismail","name:ms-Arab":"تامن تون دوكتور اسماعيل","name:zh":"敦依斯迈花园","name:zh-Hans":"敦依斯迈花园","name:zh-Hant":"敦依斯邁花園","public_transport":"stop_position","railway":"stop","ref":"KG10","subway":"yes"},"id":"node/4560707930"},
{"type":"Feature","geometry":{"type":"Point","coordinates":[101.6429535,3.1293318]},"properties":{"@id":"node/4560707931","name":"Phileo Damansara","name:en":"Phileo Damansara","name:ms":"Phileo Damansara","name:ms-Arab":"فيليو دامنسارا","name:zh":"菲利欧白沙罗","name:zh-Hans":"菲利欧白沙罗","name:zh-Hant":"菲利歐白沙羅","network":"Kajang Line","public_transport":"stop_position","railway":"stop","ref":"KG12","subway":"yes"},"id":"node/4560707931"},
{"type":"Feature","geometry":{"type":"Point","coordinates":[101.6623266,3.1433046]},"properties":{"@id":"node/4560707932","alt_name":"Pavilion Pusat Bandar Damansara","name":"Pusat Bandar Damansara","name:en":"Pusat Bandar Damansara","name:ms":"Pusat Bandar Damansara","name:ms-Arab":"ڤوست بندر دامنسارا","name:zh":"白沙罗市中心","name:zh-Hans":"白沙罗市中心","name:zh-Hant":"白沙羅市中心","public_transport":"stop_position","railway":"stop","ref":"KG13","subway":"yes","wikidata":"Q22087870","wikipedia":"en:Pusat Bandar Damansara MRT station"},"id":"node/4560707932"},
{"type":"Feature","geometry":{"type":"Point","coordinates":[101.7230193,3.1323479]},"properties":{"@id":"node/4650891149","name":"Cochrane","name:en":"Cochrane","name:ms":"Cochrane","name:ms-Arab":"كوكرين","name:ta":"காக்ரேன்","name:zh":"葛京","name:zh-Hans":"葛京","name:zh-Hant":"葛京","public_transport":"stop_position","railway":"stop","ref":"KG21","subway":"yes","wikidata":"Q22087849","wikipedia":"en:Cochrane MRT station"},"id":"node/4650891149"},
{"type":"Feature","geometry":{"type":"Point","coordinates":[101.7022688,3.1421759]},"properties":{"@id":"node/4650900225","name":"Merdeka","name:en":"Merdeka","name:ms":"Merdeka","name:ms-Arab":"مرديك","name:ta":"மெர்தேக்கா","name:zh":"默迪卡","name:zh-Hans":"默迪卡","name:zh-Hant":"默迪卡","public_transport":"stop_position","railway":"stop","ref":"KG17","subway":"yes"},"id":"node/4650900225"},
{"type":"Feature","geometry":{"type":"Point","coordinates":[101.6963621,3.1424869]},"properties":{"@id":"node/4658799652","name":"Pasar Seni","name:en":"Pasar Seni","name:ms":"Pasar Seni","name:ms-Arab":"ڤاسر سني","name:ta":"தங் வாங்கி","name:zh":"中央艺术坊","name:zh-Hans":"中央艺术坊","name:zh-Hant":"中央藝術坊","old_ref":"SBK16","public_transport":"stop_position","railway":"stop","ref":"KG16","subway":"yes","wikidata":"Q1057429","wikipedia":"en:Pasar Seni station"},"id":"node/4658799652"},
{"type":"Feature","geometry":{"type":"Point","coordinates":[101.6873589,3.137188]},"properties":{"@id":"node/4658799653","name":"Muzium Negara","name:en":"Muzium Negara","name:ms":"Muzium Negara","name:ms-Arab":"موزيوم نݢارا","name:ta":"தேசிய அருங்காட்சியகம்","name:zh":"国家博物馆","name:zh-Hans":"国家博物馆","name:zh-Hant":"國家博物館","public_transport":"stop_position","railway":"stop","ref":"KG15","subway":"yes","wikidata":"Q22087864","wikipedia":"en:Muzium Negara MRT station"},"id":"node/4658799653"},
{"type":"Feature","geometry":{"type":"Point","coordinates":[101.7109781,3.1465012]},"properties":{"@id":"node/4658799654","name":"Bukit Bintang (KG)","name:en":"Bukit Bintang (KG)","name:ms":"Bukit Bintang (KG)","name:ms-Arab":"بوكيت بينتڠ (كي جي)","name:ta":"புகித் பின்டாங்க்","name:zh":"武吉免登（捷运）","name:zh-Hans":"武吉免登（捷运）","name:zh-Hant":"武吉免登（捷運）","old_ref":"SBK18A","public_transport":"stop_position","railway":"stop","ref":"KG18A","subway":"yes","wikidata":"Q22087847","wikipedia":"en:Bukit Bintang MRT station"},"id":"node/4658799654"},
{"type":"Feature","geometry":{"type":"Point","coordinates":[101.7198742,3.1428612]},"properties":{"@id":"node/4658799655","name":"Tun Razak Exchange (KG)","name:en":"Tun Razak Exchange","name:ms":"Tun Razak Exchange","name:ms-Arab":"تون رازق ايك س چينج","name:ta":"டன் ரசாக் பரிமாற்றம்","name:zh":"敦拉萨国际贸易中心","name:zh-Hans":"敦拉萨国际贸易中心","name:zh-Hant":"敦拉薩國際貿易中心","public_transport":"stop_position","railway":"stop","ref":"KG20","short_name":"TRX","subway":"yes"},"id":"node/4658799655"},
{"type":"Feature","geometry":{"type":"Point","coordinates":[101.7271516,3.1246194]},"properties":{"@id":"node/4661418770","name":"Maluri","name:en":"Maluri","name:ms":"Maluri","name:ms-Arab":"مالوري","name:ta":"மலுரி","name:zh":"马鲁里","name:zh-Hans":"马鲁里","name:zh-Hant":"馬魯裡","old_ref":"SBK22","public_transport":"stop_position","railway":"stop","ref":"KG22","subway":"yes","wikidata":"Q6744979","wikipedia":"en:Maluri station"},"id":"node/4661418770"},
{"type":"Feature","geometry":{"type":"Point","coordinates":[101.7862089,2.9941054]},"properties":{"@id":"node/4795488806","name":"Stadium Kajang","name:en":"Stadium Kajang","name:ms":"Stadium Kajang","name:zh":"加影体育场","name:zh-Hans":"加影体育场","name:zh-Hant":"加影體育場","network":"Sungai Buloh-Kajang line","operator":"RapidKL","public_transport":"stop_position","railway":"stop","ref":"SBK34","subway":"yes"},"id":"node/4795488806"},
{"type":"Feature","geometry":{"type":"Point","coordinates":[101.5862296,3.067125]},"properties":{"@id":"node/4868073453","light_rail":"yes","name":"SS18","name:en":"SS18","name:ms":"SS18","name:zh":"SS18区","name:zh-Hans":"SS18区","name:zh-Hant":"SS18區","public_transport":"stop_position","railway":"stop","ref":"KJ30","wikidata":"Q23058699","wikipedia":"en:SS18 LRT station"},"id":"node/4868073453"},
{"type":"Feature","geometry":{"type":"Point","coordinates":[101.7903903,2.9831462]},"properties":{"@id":"node/5249698028","name":"Kajang (KG)","name:en":"Kajang (KG)","name:ms":"Kajang (KG)","name:zh":"加影（捷运）","name:zh-Hans":"加影（捷运）","name:zh-Hant":"加影（捷運）","old_ref":"SBK35","public_transport":"stop_position","railway":"stop","ref":"KG35","subway":"yes","wikidata":"Q6131737","wikipedia":"en:Kajang station"},"id":"node/5249698028"},
{"type":"Feature","geometry":{"type":"Point","coordinates":[101.7840774,3.0008035]},"properties":{"@id":"node/5249698029","name":"Sungai Jernih","name:en":"Sungai Jernih","name:ms":"Sungai Jernih","name:zh":"双溪遮内","name:zh-Hans":"双溪遮内","name:zh-Hant":"雙溪遮內","network":"Kajang Line","operator":"Rapid KL","public_transport":"stop_position","railway":"stop","ref":"KG33","subway":"yes","wikidata":"Q22087874","wikipedia":"en:Sungai Jernih MRT station"},"id":"node/5249698029"},
{"type":"Feature","geometry":{"type":"Point","coordinates":[101.5902112,3.0478201]},"properties":{"@id":"node/5304094204","light_rail":"yes","name":"Taipan","name:en":"Taipan","name:ms":"Taipan","name:zh":"大班","name:zh-Hans":"大班","name:zh-Hant":"大班","public_transport":"stop_position","railway":"stop","ref":"KJ32","wikidata":"Q23058714","wikipedia":"en:Taipan LRT station"},"id":"node/5304094204"},
{"type":"Feature","geometry":{"type":"Point","coordinates":[101.7017917,3.1445541]},"properties":{"@id":"node/5391735621","light_rail":"yes","name":"Plaza Rakyat","name:en":"Plaza Rakyat","name:ms":"Plaza Rakyat","name:ms-Arab":"ڤلازا رعيت","name:zh":"人民广场","name:zh-Hans":"人民广场","name:zh-Hant":"人民廣場","public_transport":"stop_position","railway":"stop","ref":"AG8;SP8","wikidata":"Q6150701","wikipedia":"en:Plaza Rakyat LRT station"},"id":"node/5391735621"},
{"type":"Feature","geometry":{"type":"Point","coordinates":[101.6953712,3.1425189]},"properties":{"@id":"node/5391744192","light_rail":"yes","name":"Pasar Seni","name:en":"Pasar Seni","name:ms":"Pasar Seni","name:ms-Arab":"ڤاسر سني","name:zh":"中央艺术坊","name:zh-Hans":"中央艺术坊","name:zh-Hant":"中央藝術坊","public_transport":"stop_position","railway":"stop","ref":"KJ14","wikidata":"Q1057429","wikipedia":"en:Pasar Seni station"},"id":"node/5391744192"},
{"type":"Feature","geometry":{"type":"Point","coordinates":[101.6865153,3.1341106]},"properties":{"@id":"node/5391767170","air_conditioning":"yes","light_rail":"yes","name":"KJ15 KL Sentral","name:en":"KL Sentral","name:ms":"KL Sentral","name:zh":"吉隆坡中央","name:zh-Hans":"吉隆坡中央","name:zh-Hant":"吉隆坡中央","public_transport":"station","railway":"station","station":"light_rail","wheelchair":"yes","wikidata":"Q801042","wikipedia":"en:Kuala Lumpur Sentral station"},"id":"node/5391767170"},
{"type":"Feature","geometry":{"type":"Point","coordinates":[101.6865106,3.1341322]},"properties":{"@id":"node/5391767171","level":"2","light_rail":"yes","name":"KL Sentral (KJ)","name:en":"KL Sentral (KJ)","name:ms":"KL Sentral (KJ)","name:ms-Arab":"كوالا لومڤور سينترال (لالوان كلنا جاي)","name:zh":"吉隆坡中央（格拉那再也线）","name:zh-Hans":"吉隆坡中央（格拉那再也线）","name:zh-Hant":"吉隆坡中央（格拉那再也線）","public_transport":"stop_position","railway":"stop","ref":"KJ15","wikidata":"Q801042","wikipedia":"en:Kuala Lumpur Sentral station"},"id":"node/5391767171"},
{"type":"Feature","geometry":{"type":"Point","coordinates":[101.6935944,3.1665629]},"properties":{"@id":"node/5391827787","light_rail":"yes","name":"PWTC","name:en":"PWTC","name:ms":"PWTC","name:ms-Arab":"ڤي دبليو تي سي","name:zh":"布特拉世界贸易中心","name:zh-Hans":"布特拉世界贸易中心","name:zh-Hant":"布特拉世界貿易中心","public_transport":"stop_position","railway":"stop","ref":"AG4;SP4"},"id":"node/5391827787"},
{"type":"Feature","geometry":{"type":"Point","coordinates":[101.6955056,3.1785862]},"properties":{"@id":"node/5391827789","light_rail":"yes","name":"Sentul","name:en":"Sentul","name:ms":"Sentul","name:ms-Arab":"سنتول‎","name:zh":"冼都","name:zh-Hans":"冼都","name:zh-Hant":"冼都","public_transport":"stop_position","railway":"stop","ref":"AG2;SP2","wikidata":"Q27140","wikipedia":"en:Sentul LRT station"},"id":"node/5391827789"},
{"type":"Feature","geometry":{"type":"Point","coordinates":[101.6953265,3.1858318]},"properties":{"@id":"node/5391827790","light_rail":"yes","name":"Sentul Timur","name:en":"Sentul Timur","name:ms":"Sentul Timur","name:ms-Arab":"سنتول تيمور","name:zh":"冼都东","name:zh-Hans":"冼都东","name:zh-Hant":"冼都東","public_transport":"stop_position","railway":"stop","ref":"AG1;SP1","wikidata":"Q27146","wikipedia":"en:Sentul Timur LRT station"},"id":"node/5391827790"},
{"type":"Feature","geometry":{"type":"Point","coordinates":[101.7133662,3.1592469]},"properties":{"@id":"node/5391966854","air_conditioning":"yes","full_name":"KLCC LRT Station","layer":"-1","level":"-1","light_rail":"yes","name":"KJ10 KLCC","name:en":"KLCC","name:ja":"KLCC","name:ms":"KLCC","name:ta":"கலகக்","name:zh":"城中城","name:zh-Hans":"城中城","name:zh-Hant":"城中城","network":"Kelana Jaya Line","operator":"Rapid KL","public_transport":"station","railway":"station","ref":"KJ10","station":"light_rail","subway":"yes","website":"https://mrt.com.my/lrt_kelana/KLCC.htm","wheelchair":"yes","wikidata":"Q1054307","wikipedia":"en:KLCC LRT station"},"id":"node/5391966854"},
{"type":"Feature","geometry":{"type":"Point","coordinates":[101.7218759,3.2195358]},"properties":{"@id":"node/5392028007","light_rail":"yes","name":"Taman Melati","name:en":"Taman Melati","name:ms":"Taman Melati","name:ms-Arab":"تامن ملاتي","name:zh":"美拉蒂花园","name:zh-Hans":"美拉蒂花园","name:zh-Hant":"美拉蒂花園","public_transport":"stop_position","railway":"stop","ref":"KJ2","wikidata":"Q7680637","wikipedia":"en:Taman Melati LRT station"},"id":"node/5392028007"},
{"type":"Feature","geometry":{"type":"Point","coordinates":[101.7178694,3.1209623]},"properties":{"@id":"node/5392245921","light_rail":"yes","name":"Miharja","name:en":"Miharja","name:ms":"Miharja","name:ms-Arab":"ميهرجا","name:zh":"美和家","name:zh-Hans":"美和家","name:zh-Hant":"美和家","public_transport":"stop_position","railway":"stop","ref":"AG12","wikidata":"Q6845255","wikipedia":"en:Miharja LRT station"},"id":"node/5392245921"},
{"type":"Feature","geometry":{"type":"Point","coordinates":[101.7269337,3.1232922]},"properties":{"@id":"node/5392245923","light_rail":"yes","name":"Maluri","name:en":"Maluri","name:ms":"Maluri","name:ms-Arab":"مالوري","name:zh":"马鲁里","name:zh-Hans":"马鲁里","name:zh-Hant":"馬魯裡","public_transport":"stop_position","railway":"stop","ref":"AG13","wikidata":"Q6744979","wikipedia":"en:Maluri station"},"id":"node/5392245923"},
{"type":"Feature","geometry":{"type":"Point","coordinates":[101.7530437,3.1384959]},"properties":{"@id":"node/5395329329","light_rail":"yes","name":"Cempaka","name:en":"Cempaka","name:ms":"Cempaka","name:zh":"千百家","name:zh-Hans":"千百家","name:zh-Hant":"千百家","public_transport":"stop_position","railway":"stop","ref":"AG16","wikidata":"Q12709672","wikipedia":"en:Cempaka LRT station"},"id":"node/5395329329"},
{"type":"Feature","geometry":{"type":"Point","coordinates":[101.7565977,3.1406583]},"properties":{"@id":"node/5395329330","light_rail":"yes","name":"Cahaya","name:ms":"Cahaya","name:zh":"丽阳","name:zh-Hans":"丽阳","name:zh-Hant":"麗陽","public_transport":"stop_position","railway":"stop","ref":"AG17","wikidata":"Q5017395","wikipedia":"en:Cahaya LRT station"},"id":"node/5395329330"},
{"type":"Feature","geometry":{"type":"Point","coordinates":[101.7600712,3.1505141]},"properties":{"@id":"node/5395329332","light_rail":"yes","name":"Ampang","name:en":"Ampang","name:ms":"Ampang","name:zh":"安邦","name:zh-Hans":"安邦","name:zh-Hant":"安邦","public_transport":"stop_position","railway":"stop","ref":"AG18","wikidata":"Q4748041","wikipedia":"en:Ampang LRT station"},"id":"node/5395329332"},
{"type":"Feature","geometry":{"type":"Point","coordinates":[101.729296,3.1126378]},"properties":{"@id":"node/5395393652","name":"Taman Pertama","name:en":"Taman Pertama","name:ms":"Taman Pertama","name:ms-Arab":"تامن ڤرتام","name:zh":"第一花园","name:zh-Hans":"第一花园","name:zh-Hant":"第一花園","old_ref":"SBK23","public_transport":"stop_position","railway":"stop","ref":"KG23","subway":"yes","wikidata":"Q22087881","wikipedia":"en:Taman Pertama MRT station"},"id":"node/5395393652"},
{"type":"Feature","geometry":{"type":"Point","coordinates":[101.7711275,3.0264532]},"properties":{"@id":"node/5397463176","name":"Bukit Dukung","name:ms":"Bukit Dukung","name:zh":"武吉杜蓊","name:zh-Hans":"武吉杜蓊","name:zh-Hant":"武吉杜蓊","public_transport":"stop_position","railway":"stop","ref":"SBK31","subway":"yes"},"id":"node/5397463176"},
{"type":"Feature","geometry":{"type":"Point","coordinates":[101.6160584,3.0332615]},"properties":{"@id":"node/5397525839","light_rail":"yes","name":"Pusat Bandar Puchong","name:ms":"Pusat Bandar Puchong","name:zh":"蒲种市中心","name:zh-Hans":"蒲种市中心","name:zh-Hant":"蒲種市中心","public_transport":"stop_position","railway":"stop","ref":"SP25","wikidata":"Q25110769","wikipedia":"en:Pusat Bandar Puchong LRT station"},"id":"node/5397525839"},
{"type":"Feature","geometry":{"type":"Point","coordinates":[101.613509,3.0227279]},"properties":{"@id":"node/5397525841","light_rail":"yes","name":"Taman Perindustrian Puchong","name:ms":"Taman Perindustrian Puchong","name:zh":"蒲种工业区","name:zh-Hans":"蒲种工业区","name:zh-Hant":"蒲種工業區","public_transport":"stop_position","railway":"stop","ref":"SP26","wikidata":"Q22674240","wikipedia":"en:Taman Perindustrian Puchong LRT station"},"id":"node/5397525841"},
{"type":"Feature","geometry":{"type":"Point","coordinates":[101.6052756,3.0078426]},"properties":{"@id":"node/5397525843","light_rail":"yes","name":"Puchong Perdana","name:ms":"Puchong Perdana","name:zh":"蒲种柏兰岭","name:zh-Hans":"蒲种柏兰岭","name:zh-Hant":"蒲種柏蘭嶺","public_transport":"stop_position","railway":"stop","ref":"SP28","wikidata":"Q25110770","wikipedia":"en:Puchong Perdana LRT station"},"id":"node/5397525843"},
{"type":"Feature","geometry":{"type":"Point","coordinates":[101.5967747,2.9998907]},"properties":{"@id":"node/5397525845","light_rail":"yes","name":"Puchong Prima","name:ms":"Puchong Prima","name:zh":"蒲种柏丽玛","name:zh-Hans":"蒲种柏丽玛","name:zh-Hant":"蒲種柏麗瑪","public_transport":"stop_position","railway":"stop","ref":"SP29","wikidata":"Q25110771","wikipedia":"en:Puchong Prima LRT station"},"id":"node/5397525845"},
{"type":"Feature","geometry":{"type":"Point","coordinates":[101.5755396,2.995961]},"properties":{"@id":"node/5397525848","light_rail":"yes","name":"Putra Heights","name:en":"Putra Heights","name:zh":"布特拉高原","name:zh-Hans":"布特拉高原","name:zh-Hant":"布特拉高原","public_transport":"stop_position","railway":"stop","ref":"SP31","wikidata":"Q7262397","wikipedia":"en:Putra Heights LRT station"},"id":"node/5397525848"},
{"type":"Feature","geometry":{"type":"Point","coordinates":[101.5756323,2.9961471]},"properties":{"@id":"node/5397525849","light_rail":"yes","name":"Putra Heights","name:en":"Putra Heights","name:zh":"布特拉高原","name:zh-Hans":"布特拉高原","name:zh-Hant":"布特拉高原","public_transport":"stop_position","railway":"stop","ref":"KJ37","wikidata":"Q7262397","wikipedia":"en:Putra Heights LRT station"},"id":"node/5397525849"},
{"type":"Feature","geometry":{"type":"Point","coordinates":[101.6128366,3.016955]},"properties":{"@id":"node/5397531567","light_rail":"yes","name":"Bandar Puteri","name:ms":"Bandar Puteri","name:zh":"公主城","name:zh-Hans":"公主城","name:zh-Hant":"公主城","public_transport":"stop_position","railway":"stop","ref":"SP27","wikidata":"Q23647028","wikipedia":"en:Bandar Puteri LRT station"},"id":"node/5397531567"},
{"type":"Feature","geometry":{"type":"Point","coordinates":[101.6377557,3.1044157]},"properties":{"@id":"node/5397595504","light_rail":"yes","name":"Asia Jaya","name:en":"Asia Jaya","name:ms":"Asia Jaya","name:zh":"亚洲再也","name:zh-Hans":"亚洲再也","name:zh-Hant":"亞洲再也","public_transport":"stop_position","railway":"stop","ref":"KJ21","wikidata":"Q1057409","wikipedia":"en:Asia Jaya LRT station"},"id":"node/5397595504"},
{"type":"Feature","geometry":{"type":"Point","coordinates":[101.5913205,3.111935]},"properties":{"@id":"node/5397595509","light_rail":"yes","name":"Lembah Subang","name:ms":"Lembah Subang","name:zh":"梳邦谷","name:zh-Hans":"梳邦谷","name:zh-Hant":"梳邦谷","public_transport":"stop_position","railway":"stop","ref":"KJ25","wikidata":"Q25110772","wikipedia":"en:Lembah Subang LRT station"},"id":"node/5397595509"},
{"type":"Feature","geometry":{"type":"Point","coordinates":[101.5867154,3.108388]},"properties":{"@id":"node/5397595511","light_rail":"yes","name":"Ara Damansara","name:ms":"Ara Damansara","name:zh":"阿拉白沙罗","name:zh-Hans":"阿拉白沙罗","name:zh-Hant":"阿拉白沙羅","network":"Kelana Jaya Line","operator":"Rapid KL","public_transport":"stop_position","railway":"stop","ref":"KJ26","wikidata":"Q24088904","wikipedia":"en:Ara Damansara LRT station"},"id":"node/5397595511"},
{"type":"Feature","geometry":{"type":"Point","coordinates":[101.5903788,3.0959134]},"properties":{"@id":"node/5397595513","light_rail":"yes","name":"Glenmarie","name:en":"Glenmarie","name:ms":"Glenmarie","name:zh":"格林玛丽","name:zh-Hans":"格林玛丽","name:zh-Hant":"格林瑪麗","public_transport":"stop_position","railway":"stop","ref":"KJ27","wikidata":"Q24944303","wikipedia":"en:Glenmarie LRT station"},"id":"node/5397595513"},
{"type":"Feature","geometry":{"type":"Point","coordinates":[101.5873168,3.0849431]},"properties":{"@id":"node/5397595515","light_rail":"yes","name":"Subang Jaya (LRT)","name:en":"Subang Jaya (LRT)","name:ms":"Subang Jaya (LRT)","name:zh":"梳邦再也（轻快铁）","name:zh-Hans":"梳邦再也（轻快铁）","name:zh-Hant":"梳邦再也（輕快鐵）","public_transport":"stop_position","railway":"stop","ref":"KJ28","wikidata":"Q7630760","wikipedia":"en:Subang Jaya station"},"id":"node/5397595515"},
{"type":"Feature","geometry":{"type":"Point","coordinates":[101.5861061,3.0756977]},"properties":{"@id":"node/5397595517","light_rail":"yes","name":"SS15","name:en":"SS15","name:ms":"SS15","name:zh":"SS15区","name:zh-Hans":"SS15区","name:zh-Hant":"SS15區","public_transport":"stop_position","railway":"stop","ref":"KJ29","wikidata":"Q23058698","wikipedia":"en:SS15 LRT station"},"id":"node/5397595517"},
{"type":"Feature","geometry":{"type":"Point","coordinates":[101.5860994,3.0671241]},"properties":{"@id":"node/5397595519","light_rail":"yes","name":"SS18","name:en":"SS18","name:ms":"SS18","name:zh":"SS18区","name:zh-Hans":"SS18区","name:zh-Hant":"SS18區","public_transport":"stop_position","railway":"stop","ref":"KJ30","wikidata":"Q23058699","wikipedia":"en:SS18 LRT station"},"id":"node/5397595519"},
{"type":"Feature","geometry":{"type":"Point","coordinates":[101.5920557,3.0548356]},"properties":{"@id":"node/5397596021","light_rail":"yes","name":"USJ7","name:en":"USJ7","name:ms":"USJ7","name:zh":"USJ7区","name:zh-Hans":"USJ7区","name:zh-Hant":"USJ7區","public_transport":"stop_position","railway":"stop","ref":"KJ31","wikidata":"Q23058763","wikipedia":"en:USJ 7 station"},"id":"node/5397596021"},
{"type":"Feature","geometry":{"type":"Point","coordinates":[101.5881378,3.0350348]},"properties":{"@id":"node/5397605055","light_rail":"yes","name":"Wawasan","name:ms":"Wawasan","name:zh":"宏愿","name:zh-Hans":"宏愿","name:zh-Hant":"宏願","public_transport":"stop_position","railway":"stop","ref":"KJ33","wikidata":"Q24088908","wikipedia":"en:Wawasan LRT station"},"id":"node/5397605055"},
{"type":"Feature","geometry":{"type":"Point","coordinates":[101.5817948,3.0297129]},"properties":{"@id":"node/5397605057","light_rail":"yes","name":"USJ21","name:en":"USJ21","name:ms":"USJ21","name:zh":"USJ21区","name:zh-Hans":"USJ21区","name:zh-Hant":"USJ21區","public_transport":"stop_position","railway":"stop","ref":"KJ34","wikidata":"Q23058762","wikipedia":"en:USJ 21 LRT station"},"id":"node/5397605057"},
{"type":"Feature","geometry":{"type":"Point","coordinates":[101.5720536,3.0096978]},"properties":{"@id":"node/5397605060","light_rail":"yes","name":"Subang Alam","name:ms":"Subang Alam","name:zh":"梳邦阿南","name:zh-Hans":"梳邦阿南","name:zh-Hant":"梳邦阿南","public_transport":"stop_position","railway":"stop","ref":"KJ36","wikidata":"Q23058703","wikipedia":"en:Subang Alam LRT station"},"id":"node/5397605060"},
{"type":"Feature","geometry":{"type":"Point","coordinates":[101.7403451,3.0913923]},"properties":{"@id":"node/5469085479","name":"Taman Mutiara","name:en":"Taman Mutiara","name:ms":"Taman Mutiara","name:ms-Arab":"تامن متيارا","name:zh":"珍珠花园","name:zh-Hans":"珍珠花园","name:zh-Hant":"珍珠花園","public_transport":"stop_position","railway":"stop","ref":"KG25","subway":"yes","wikidata":"Q22087880","wikipedia":"en:Taman Mutiara MRT station"},"id":"node/5469085479"},
{"type":"Feature","geometry":{"type":"Point","coordinates":[101.745144,3.0792142]},"properties":{"@id":"node/5469085480","name":"Taman Connaught","name:en":"Taman Connaught","name:ms":"Taman Connaught","name:zh":"康乐花园","name:zh-Hans":"康乐花园","name:zh-Hant":"康樂花園","public_transport":"stop_position","railway":"stop","ref":"KG26","subway":"yes","wikidata":"Q22087877","wikipedia":"en:Taman Connaught MRT station"},"id":"node/5469085480"},
{"type":"Feature","geometry":{"type":"Point","coordinates":[101.7635488,3.0716636]},"properties":{"@id":"node/5469085481","name":"Taman Suntex","name:ms":"Taman Suntex","name:zh":"山力花园","name:zh-Hans":"山力花园","name:zh-Hant":"山力花園","public_transport":"stop_position","railway":"stop","ref":"SBK27","subway":"yes","wikidata":"Q22087882","wikipedia":"en:Taman Suntex MRT station"},"id":"node/5469085481"},
{"type":"Feature","geometry":{"type":"Point","coordinates":[101.7729934,3.0621901]},"properties":{"@id":"node/5469085482","name":"Sri Raya","name:en":"Sri Raya","name:ms":"Sri Raya","name:zh":"斯里拉也","name:zh-Hans":"斯里拉也","name:zh-Hant":"斯里拉也","public_transport":"stop_position","railway":"stop","ref":"SBK28","subway":"yes","wikidata":"Q22087872","wikipedia":"en:Sri Raya MRT station"},"id":"node/5469085482"},
{"type":"Feature","geometry":{"type":"Point","coordinates":[101.77504,3.0483736]},"properties":{"@id":"node/5469085496","name":"Bandar Tun Hussein Onn","name:en":"Bandar Tun Hussein Onn","name:zh":"敦胡先翁镇","name:zh-Hans":"敦胡先翁镇","name:zh-Hant":"敦胡先翁鎮","public_transport":"stop_position","railway":"stop","ref":"SBK29","subway":"yes","wikidata":"Q22087844","wikipedia":"en:Bandar Tun Hussein Onn MRT station"},"id":"node/5469085496"},
{"type":"Feature","geometry":{"type":"Point","coordinates":[101.7734006,3.0413221]},"properties":{"@id":"node/5469085497","name":"Batu 11 Cheras","name:en":"Cheras 11 Miles","name:ms":"Batu 11 Cheras","name:zh":"蕉赖十一哩","name:zh-Hans":"蕉赖十一哩","name:zh-Hant":"蕉賴十一哩","public_transport":"stop_position","railway":"stop","ref":"SBK30","subway":"yes","wikidata":"Q22087846","wikipedia":"en:Batu 11 Cheras MRT station"},"id":"node/5469085497"},
{"type":"Feature","geometry":{"type":"Point","coordinates":[101.5936553,3.1496339]},"properties":{"@id":"node/5484616500","name":"Surian","name:en":"Surian","name:ms":"Surian","name:zh":"苏丽雅","name:zh-Hans":"苏丽雅","name:zh-Hant":"蘇麗雅","public_transport":"stop_position","railway":"stop","ref":"KG07","subway":"yes"},"id":"node/5484616500"},
{"type":"Feature","geometry":{"type":"Point","coordinates":[101.5872954,3.0848338]},"properties":{"@id":"node/5486069170","light_rail":"yes","name":"Subang Jaya (LRT)","name:en":"Subang Jaya (LRT)","name:ms":"Subang Jaya (LRT)","name:zh":"梳邦再也（轻快铁）","name:zh-Hans":"梳邦再也（轻快铁）","name:zh-Hant":"梳邦再也（輕快鐵）","public_transport":"stop_position","railway":"stop","ref":"KJ28","wikidata":"Q7630760","wikipedia":"en:Subang Jaya station"},"id":"node/5486069170"},
{"type":"Feature","geometry":{"type":"Point","coordinates":[101.735839,3.1757679]},"properties":{"@id":"node/5602701018","light_rail":"yes","name":"Setiawangsa","name:ms":"Setiawangsa","name:zh":"斯迪亚旺沙","name:zh-Hans":"斯迪亚旺沙","name:zh-Hant":"斯迪亞旺沙","public_transport":"stop_position","railway":"stop","ref":"KJ5","stop_number":"KJ5","wikidata":"Q7456705","wikipedia":"en:Setiawangsa LRT station"},"id":"node/5602701018"},
{"type":"Feature","geometry":{"type":"Point","coordinates":[101.7243673,3.1644073]},"properties":{"@id":"node/5603337888","light_rail":"yes","name":"Damai","name:en":"Damai","name:ms":"Damai","name:ms-Arab":"داماي","name:zh":"达迈","name:zh-Hans":"达迈","name:zh-Hant":"達邁","network":"Kelana Jaya Line","operator":"Rapid KL","public_transport":"stop_position","railway":"stop","ref":"KJ8","wikidata":"Q5211926","wikipedia":"en:Damai LRT station (Malaysia)"},"id":"node/5603337888"},
{"type":"Feature","geometry":{"type":"Point","coordinates":[101.6952427,3.1425188]},"properties":{"@id":"node/5603481635","light_rail":"yes","name":"Pasar Seni","name:en":"Pasar Seni","name:ms":"Pasar Seni","name:ms-Arab":"ڤاسر سني","name:zh":"中央艺术坊","name:zh-Hans":"中央艺术坊","name:zh-Hant":"中央藝術坊","network":"Kelana Jaya Line","public_transport":"stop_position","railway":"stop","ref":"KJ14","wikidata":"Q1057429","wikipedia":"en:Pasar Seni station"},"id":"node/5603481635"},
{"type":"Feature","geometry":{"type":"Point","coordinates":[101.586599,3.1084406]},"properties":{"@id":"node/5604972809","light_rail":"yes","name":"Ara Damansara","name:ms":"Ara Damansara","name:zh":"阿拉白沙罗","name:zh-Hans":"阿拉白沙罗","name:zh-Hant":"阿拉白沙羅","network":"Kelana Jaya Line","operator":"Rapid KL","public_transport":"stop_position","railway":"stop","ref":"KJ26","wikidata":"Q24088904","wikipedia":"en:Ara Damansara LRT station"},"id":"node/5604972809"},
{"type":"Feature","geometry":{"type":"Point","coordinates":[101.6428832,3.1291402]},"properties":{"@id":"node/5605094804","name":"Phileo Damansara","name:en":"Phileo Damansara","name:ms":"Phileo Damansara","name:ms-Arab":"فيليو دامنسارا","name:zh":"菲利欧白沙罗","name:zh-Hans":"菲利欧白沙罗","name:zh-Hant":"菲利歐白沙羅","network":"Kajang Line","public_transport":"stop_position","railway":"stop","ref":"KG12","subway":"yes"},"id":"node/5605094804"},
{"type":"Feature","geometry":{"type":"Point","coordinates":[101.6084026,3.1982976]},"properties":{"@id":"node/5617917162","name":"Sri Damansara Barat","name:en":"Sri Damansara Barat","name:ms":"Sri Damansara Barat","name:zh":"斯里白沙罗西","name:zh-Hans":"斯里白沙罗西","name:zh-Hant":"斯里白沙羅西","public_transport":"stop_position","railway":"stop","ref":"PY06","subway":"yes","wikidata":"Q24884334","wikipedia":"en:Sri Damansara Barat MRT station"},"id":"node/5617917162"},
{"type":"Feature","geometry":{"type":"Point","coordinates":[101.5817233,3.2062285]},"properties":{"@id":"node/5659819843","name":"Sungai Buloh (PY)","name:en":"Sungai Buloh (PY)","name:ja":"MRT スンガイ・ブロー","name:ms":"Sungai Buloh (PY)","name:zh":"双溪毛糯（捷运）","name:zh-Hans":"双溪毛糯（捷运）","name:zh-Hant":"雙溪毛糯（捷運）","old_ref":"SBK01","public_transport":"stop_position","railway":"stop","ref":"PY04","subway":"yes","wikidata":"Q6131722","wikipedia":"en:Sungai Buloh station"},"id":"node/5659819843"},
{"type":"Feature","geometry":{"type":"Point","coordinates":[101.5491075,3.0800237]},"properties":{"@id":"node/5702102258","light_rail":"yes","name":"Stadium Shah Alam","name:en":"Stadium Shah Alam","name:ms":"Stadium Shah Alam","public_transport":"stop_position","railway":"stop","ref":"SA10"},"id":"node/5702102258"},
{"type":"Feature","geometry":{"type":"Point","coordinates":[101.5886647,3.0951588]},"properties":{"@id":"node/5702102312","light_rail":"yes","name":"Glenmarie 2","name:en":"Glenmarie 2","public_transport":"stop_position","railway":"stop","ref":"SA8"},"id":"node/5702102312"},
{"type":"Feature","geometry":{"type":"Point","coordinates":[101.5911356,3.1060902]},"properties":{"@id":"node/5702102333","light_rail":"yes","name":"SS7","name:en":"SS7","name:ms":"SS7","public_transport":"stop_position","railway":"stop","ref":"SA6"},"id":"node/5702102333"},
{"type":"Feature","geometry":{"type":"Point","coordinates":[101.696461,3.1494076]},"properties":{"@id":"node/6502502981","light_rail":"yes","name":"AG7 SP7 KJ13 Masjid Jamek","name:en":"Masjid Jamek","name:ms":"Masjid Jamek","name:zh":"占美清真寺","name:zh-Hans":"占美清真寺","name:zh-Hant":"占美清真寺","operator":"Rapid KL","public_transport":"station","railway":"station","station":"light_rail","wikidata":"Q1055044","wikipedia":"en:Masjid Jamek LRT station"},"id":"node/6502502981"},
{"type":"Feature","geometry":{"type":"Point","coordinates":[101.7075689,3.02852]},"properties":{"@id":"node/6575190529","name":"Serdang Raya Selatan","name:en":"Serdang Raya South","name:ms":"Serdang Raya Selatan","name:zh":"沙登拉也南","name:zh-Hans":"沙登拉也南","name:zh-Hant":"沙登拉也南","public_transport":"stop_position","railway":"stop","ref":"PY32","subway":"yes"},"id":"node/6575190529"},
{"type":"Feature","geometry":{"type":"Point","coordinates":[101.6442614,3.0504501]},"properties":{"@id":"node/7077803194","light_rail":"yes","name":"Kinrara BK5","name:en":"Kinrara BK5","name:ms":"Kinrara BK5","name:zh":"金銮第五区","name:zh-Hans":"金銮第五区","name:zh-Hant":"金鑾第五區","public_transport":"stop_position","railway":"stop","ref":"SP22","wikidata":"Q25038320","wikipedia":"en:Kinrara BK 5 LRT station"},"id":"node/7077803194"},
{"type":"Feature","geometry":{"type":"Point","coordinates":[101.6052771,3.0078119]},"properties":{"@id":"node/7077855537","light_rail":"yes","name":"Puchong Perdana","name:ms":"Puchong Perdana","name:zh":"蒲种柏兰岭","name:zh-Hans":"蒲种柏兰岭","name:zh-Hant":"蒲種柏蘭嶺","public_transport":"stop_position","railway":"stop","ref":"SP28","wikidata":"Q25110770","wikipedia":"en:Puchong Perdana LRT station"},"id":"node/7077855537"},
{"type":"Feature","geometry":{"type":"Point","coordinates":[101.5755187,2.9959227]},"properties":{"@id":"node/7077855552","light_rail":"yes","name":"Putra Heights","name:en":"Putra Heights","name:zh":"布特拉高原","name:zh-Hans":"布特拉高原","name:zh-Hant":"布特拉高原","public_transport":"stop_position","railway":"stop","ref":"SP31","wikidata":"Q7262397","wikipedia":"en:Putra Heights LRT station"},"id":"node/7077855552"},
{"type":"Feature","geometry":{"type":"Point","coordinates":[101.5756171,2.9961172]},"properties":{"@id":"node/7077855554","light_rail":"yes","name":"Putra Heights","name:en":"Putra Heights","name:zh":"布特拉高原","name:zh-Hans":"布特拉高原","name:zh-Hant":"布特拉高原","public_transport":"stop_position","railway":"stop","ref":"KJ37","wikidata":"Q7262397","wikipedia":"en:Putra Heights LRT station"},"id":"node/7077855554"},
{"type":"Feature","geometry":{"type":"Point","coordinates":[101.6617123,3.1144858]},"properties":{"@id":"node/7148101757","light_rail":"yes","name":"Universiti","name:en":"Universiti","name:ms":"Universiti","name:ms-Arab":"اونيۏرسيتي","name:zh":"大学","name:zh-Hans":"大学","name:zh-Hant":"大學","operator":"Rapid KL","public_transport":"stop_position","railway":"stop","ref":"KJ19","wikidata":"Q6131847","wikipedia":"en:Universiti LRT station, Kuala Lumpur"},"id":"node/7148101757"},
{"type":"Feature","geometry":{"type":"Point","coordinates":[101.6729455,3.118749]},"properties":{"@id":"node/7369242373","light_rail":"yes","name":"Abdullah Hukum","name:en":"Abdullah Hukum","name:ms":"Abdullah Hukum","name:ms-Arab":"عبدالله حكوم","name:zh":"阿都拉胡坤","name:zh-Hans":"阿都拉胡坤","name:zh-Hant":"阿都拉胡坤","operator":"Rapid KL","public_transport":"stop_position","railway":"stop","ref":"KJ17"},"id":"node/7369242373"},
{"type":"Feature","geometry":{"type":"Point","coordinates":[101.578433,3.1971535]},"properties":{"@id":"node/7722393676","name":"Kampung Selamat","name:zh":"甘榜士拉玛","old_ref":"SBK02","public_transport":"stop_position","railway":"stop","ref":"PY03","subway":"yes"},"id":"node/7722393676"},
{"type":"Feature","geometry":{"type":"Point","coordinates":[101.5648656,3.1698609]},"properties":{"@id":"node/7723703872","name":"Kwasa Sentral","name:ms":"Kwasa Sentral","name:zh":"桂莎中央","name:zh-Hans":"桂莎中央","name:zh-Hant":"桂莎中央","public_transport":"stop_position","railway":"stop","ref":"KG05","subway":"yes"},"id":"node/7723703872"},
{"type":"Feature","geometry":{"type":"Point","coordinates":[101.5723833,3.176517]},"properties":{"@id":"node/7723703873","name":"Kwasa Damansara","name:en":"Kwasa Damansara","name:ms":"Kwasa Damansara","name:zh":"桂莎白沙罗","name:zh-Hans":"桂莎白沙罗","name:zh-Hant":"桂莎白沙羅","old_ref":"SBK04","public_transport":"stop_position","railway":"stop","ref":"KG04","subway":"yes"},"id":"node/7723703873"},
{"type":"Feature","geometry":{"type":"Point","coordinates":[101.572394,3.1762843]},"properties":{"@id":"node/7723703874","name":"Kwasa Damansara","name:en":"Kwasa Damansara","name:ms":"Kwasa Damansara","name:zh":"桂莎白沙罗","name:zh-Hans":"桂莎白沙罗","name:zh-Hant":"桂莎白沙羅","public_transport":"stop_position","railway":"stop","ref":"PY01","subway":"yes"},"id":"node/7723703874"},
{"type":"Feature","geometry":{"type":"Point","coordinates":[101.5724098,3.1762262]},"properties":{"@id":"node/7723703875","name":"Kwasa Damansara","name:en":"Kwasa Damansara","name:ms":"Kwasa Damansara","name:zh":"桂莎白沙罗","name:zh-Hans":"桂莎白沙罗","name:zh-Hant":"桂莎白沙羅","public_transport":"stop_position","railway":"stop","ref":"PY01","subway":"yes"},"id":"node/7723703875"},
{"type":"Feature","geometry":{"type":"Point","coordinates":[101.608413,3.1981606]},"properties":{"@id":"node/7723739292","name":"Sri Damansara Barat","name:en":"Sri Damansara Barat","name:ms":"Sri Damansara Barat","name:zh":"斯里白沙罗西","name:zh-Hans":"斯里白沙罗西","name:zh-Hant":"斯里白沙羅西","public_transport":"stop_position","railway":"stop","ref":"PY06","subway":"yes","wikidata":"Q24884334","wikipedia":"en:Sri Damansara Barat MRT station"},"id":"node/7723739292"},
{"type":"Feature","geometry":{"type":"Point","coordinates":[101.6211453,3.1985415]},"properties":{"@id":"node/7723739344","name":"Sri Damansara Sentral","name:en":"Sri Damansara Sentral","name:ms":"Sri Damansara Sentral","name:zh":"斯里白沙罗中心","name:zh-Hans":"斯里白沙罗中心","name:zh-Hant":"斯里白沙羅中心","public_transport":"stop_position","railway":"stop","ref":"PY07","subway":"yes","wikidata":"Q24884352","wikipedia":"en:Sri Damansara Sentral MRT station"},"id":"node/7723739344"},
{"type":"Feature","geometry":{"type":"Point","coordinates":[101.7182203,3.1568044]},"properties":{"@id":"node/7724226582","name":"Persiaran KLCC","name:en":"Persiaran KLCC","name:ms":"Persiaran KLCC","name:ms-Arab":"ڤرسيارن كي ايل سي سي","name:zh":"城中城道","name:zh-Hans":"城中城道","name:zh-Hant":"城中城道","public_transport":"stop_position","railway":"stop","ref":"PY21","subway":"yes"},"id":"node/7724226582"},
{"type":"Feature","geometry":{"type":"Point","coordinates":[101.707449,3.028431]},"properties":{"@id":"node/7725136738","name":"Serdang Raya Selatan","name:en":"Serdang Raya South","name:ms":"Serdang Raya Selatan","name:zh":"沙登拉也南","name:zh-Hans":"沙登拉也南","name:zh-Hant":"沙登拉也南","public_transport":"stop_position","railway":"stop","ref":"PY32","subway":"yes"},"id":"node/7725136738"},
{"type":"Feature","geometry":{"type":"Point","coordinates":[101.5936568,3.14967]},"properties":{"@id":"node/7727312788","name":"Surian","name:en":"Surian","name:ms":"Surian","name:zh":"苏丽雅","name:zh-Hans":"苏丽雅","name:zh-Hant":"蘇麗雅","public_transport":"stop_position","railway":"stop","ref":"KG07","subway":"yes"},"id":"node/7727312788"},
{"type":"Feature","geometry":{"type":"Point","coordinates":[101.5786958,3.1502287]},"properties":{"@id":"node/7727312789","name":"Kota Damansara","name:en":"Kota Damansara","name:ms":"Kota Damansara","name:zh":"哥打白沙罗","name:zh-Hans":"哥打白沙罗","name:zh-Hant":"哥打白沙羅","public_transport":"stop_position","railway":"stop","ref":"KG06","subway":"yes"},"id":"node/7727312789"},
{"type":"Feature","geometry":{"type":"Point","coordinates":[101.6087346,3.1552117]},"properties":{"@id":"node/7727312842","name":"Mutiara Damansara","name:zh":"珍珠白沙罗","public_transport":"stop_position","railway":"stop","ref":"KG08","subway":"yes"},"id":"node/7727312842"},
{"type":"Feature","geometry":{"type":"Point","coordinates":[101.6187845,3.1467141]},"properties":{"@id":"node/7727312862","name":"Bandar Utama","name:ms":"Bandar Utama","name:zh":"万达镇","name:zh-Hans":"万达镇","name:zh-Hant":"萬達鎮","public_transport":"stop_position","railway":"stop","ref":"KG09","subway":"yes"},"id":"node/7727312862"},
{"type":"Feature","geometry":{"type":"Point","coordinates":[101.6307966,3.1360801]},"properties":{"@id":"node/7727312912","name":"Taman Tun Dr Ismail","name:en":"Taman Tun Dr Ismail","name:ms":"Taman Tun Dr Ismail","name:ms-Arab":"تامن تون دوكتور اسماعيل","name:zh":"敦依斯迈花园","name:zh-Hans":"敦依斯迈花园","name:zh-Hant":"敦依斯邁花園","public_transport":"stop_position","railway":"stop","ref":"KG10","subway":"yes"},"id":"node/7727312912"},
{"type":"Feature","geometry":{"type":"Point","coordinates":[101.662351,3.1432638]},"properties":{"@id":"node/7734598659","alt_name":"Pavilion Pusat Bandar Damansara","name":"Pusat Bandar Damansara","name:en":"Pusat Bandar Damansara","name:ms":"Pusat Bandar Damansara","name:ms-Arab":"ڤوست بندر دامنسارا","name:zh":"白沙罗市中心","name:zh-Hans":"白沙罗市中心","name:zh-Hant":"白沙羅市中心","public_transport":"stop_position","railway":"stop","ref":"KG13","subway":"yes","wikidata":"Q22087870","wikipedia":"en:Pusat Bandar Damansara MRT station"},"id":"node/7734598659"},
{"type":"Feature","geometry":{"type":"Point","coordinates":[101.6653524,3.1509234]},"properties":{"@id":"node/7734598758","name":"Semantan","name:en":"Semantan","name:ms":"Semantan","name:ms-Arab":"سمنتن‎","name:zh":"士曼丹","name:zh-Hans":"士曼丹","name:zh-Hant":"士曼丹","public_transport":"stop_position","railway":"stop","ref":"KG14","subway":"yes","wikidata":"Q22087871","wikipedia":"en:Semantan MRT station"},"id":"node/7734598758"},
{"type":"Feature","geometry":{"type":"Point","coordinates":[101.6873773,3.1370538]},"properties":{"@id":"node/7734598865","name":"Muzium Negara","name:en":"Muzium Negara","name:ms":"Muzium Negara","name:ms-Arab":"موزيوم نݢارا","name:ta":"தேசிய அருங்காட்சியகம்","name:zh":"国家博物馆","name:zh-Hans":"国家博物馆","name:zh-Hant":"國家博物館","public_transport":"stop_position","railway":"stop","ref":"KG15","subway":"yes","wikidata":"Q22087864","wikipedia":"en:Muzium Negara MRT station"},"id":"node/7734598865"},
{"type":"Feature","geometry":{"type":"Point","coordinates":[101.6963644,3.1423104]},"properties":{"@id":"node/7734598891","name":"Pasar Seni","name:en":"Pasar Seni","name:ms":"Pasar Seni","name:ms-Arab":"ڤاسر سني","name:ta":"தங் வாங்கி","name:zh":"中央艺术坊","name:zh-Hans":"中央艺术坊","name:zh-Hant":"中央藝術坊","old_ref":"SBK16","public_transport":"stop_position","railway":"stop","ref":"KG16","subway":"yes","wikidata":"Q1057429","wikipedia":"en:Pasar Seni station"},"id":"node/7734598891"},
{"type":"Feature","geometry":{"type":"Point","coordinates":[101.7022083,3.1420586]},"properties":{"@id":"node/7737906990","name":"Merdeka","name:en":"Merdeka","name:ms":"Merdeka","name:ms-Arab":"مرديك","name:ta":"மெர்தேக்கா","name:zh":"默迪卡","name:zh-Hans":"默迪卡","name:zh-Hant":"默迪卡","public_transport":"stop_position","railway":"stop","ref":"KG17","subway":"yes"},"id":"node/7737906990"},
{"type":"Feature","geometry":{"type":"Point","coordinates":[101.7109772,3.1465033]},"properties":{"@id":"node/7737907035","name":"Bukit Bintang (KG)","name:en":"Bukit Bintang (KG)","name:ms":"Bukit Bintang (KG)","name:ms-Arab":"بوكيت بينتڠ (كي جي)","name:ta":"புகித் பின்டாங்க்","name:zh":"武吉免登（捷运）","name:zh-Hans":"武吉免登（捷运）","name:zh-Hant":"武吉免登（捷運）","old_ref":"SBK18A","public_transport":"stop_position","railway":"stop","ref":"KG18A","subway":"yes","wikidata":"Q22087847","wikipedia":"en:Bukit Bintang MRT station"},"id":"node/7737907035"},
{"type":"Feature","geometry":{"type":"Point","coordinates":[101.7200311,3.1429063]},"properties":{"@id":"node/7737907036","name":"Tun Razak Exchange (PY)","name:en":"Tun Razak Exchange","name:ms":"Tun Razak Exchange","name:ms-Arab":"تون رازق ايك س چينج","name:ta":"டன் ரசாக் பரிமாற்றம்","name:zh":"敦拉萨国际贸易中心","name:zh-Hans":"敦拉萨国际贸易中心","name:zh-Hant":"敦拉薩國際貿易中心","public_transport":"stop_position","railway":"stop","ref":"PY23","short_name":"TRX","subway":"yes"},"id":"node/7737907036"},
{"type":"Feature","geometry":{"type":"Point","coordinates":[101.7231513,3.132384]},"properties":{"@id":"node/7737907037","name":"Cochrane","name:en":"Cochrane","name:ms":"Cochrane","name:ms-Arab":"كوكرين","name:ta":"காக்ரேன்","name:zh":"葛京","name:zh-Hans":"葛京","name:zh-Hant":"葛京","public_transport":"stop_position","railway":"stop","ref":"KG21","subway":"yes","wikidata":"Q22087849","wikipedia":"en:Cochrane MRT station"},"id":"node/7737907037"},
{"type":"Feature","geometry":{"type":"Point","coordinates":[101.7272353,3.1246694]},"properties":{"@id":"node/7737907040","name":"Maluri","name:en":"Maluri","name:ms":"Maluri","name:ms-Arab":"مالوري","name:ta":"மலுரி","name:zh":"马鲁里","name:zh-Hans":"马鲁里","name:zh-Hant":"馬魯裡","old_ref":"SBK22","public_transport":"stop_position","railway":"stop","ref":"KG22","subway":"yes","wikidata":"Q6744979","wikipedia":"en:Maluri station"},"id":"node/7737907040"},
{"type":"Feature","geometry":{"type":"Point","coordinates":[101.7293427,3.1126489]},"properties":{"@id":"node/7737907093","name":"Taman Pertama","name:en":"Taman Pertama","name:ms":"Taman Pertama","name:ms-Arab":"تامن ڤرتام","name:zh":"第一花园","name:zh-Hans":"第一花园","name:zh-Hant":"第一花園","old_ref":"SBK23","public_transport":"stop_position","railway":"stop","ref":"KG23","subway":"yes","wikidata":"Q22087881","wikipedia":"en:Taman Pertama MRT station"},"id":"node/7737907093"},
{"type":"Feature","geometry":{"type":"Point","coordinates":[101.7322481,3.1043416]},"properties":{"@id":"node/7737907122","name":"Taman Midah","name:en":"Taman Midah","name:ms":"Taman Midah","name:ms-Arab":"تامن ميده","name:zh":"美达花园","name:zh-Hans":"美达花园","name:zh-Hant":"美達花園","public_transport":"stop_position","railway":"stop","ref":"SBK24","subway":"yes","wikidata":"Q22087879","wikipedia":"en:Taman Midah MRT station"},"id":"node/7737907122"},
{"type":"Feature","geometry":{"type":"Point","coordinates":[101.7402859,3.09138]},"properties":{"@id":"node/7737946491","name":"Taman Mutiara","name:en":"Taman Mutiara","name:ms":"Taman Mutiara","name:ms-Arab":"تامن متيارا","name:zh":"珍珠花园","name:zh-Hans":"珍珠花园","name:zh-Hant":"珍珠花園","public_transport":"stop_position","railway":"stop","ref":"KG25","subway":"yes","wikidata":"Q22087880","wikipedia":"en:Taman Mutiara MRT station"},"id":"node/7737946491"},
{"type":"Feature","geometry":{"type":"Point","coordinates":[101.7451366,3.0791684]},"properties":{"@id":"node/7737946521","name":"Taman Connaught","name:en":"Taman Connaught","name:ms":"Taman Connaught","name:ms-Arab":"تامن كونوت","name:zh":"康乐花园","name:zh-Hans":"康乐花园","name:zh-Hant":"康樂花園","public_transport":"stop_position","railway":"stop","ref":"KG26","subway":"yes","wikidata":"Q22087877","wikipedia":"en:Taman Connaught MRT station"},"id":"node/7737946521"},
{"type":"Feature","geometry":{"type":"Point","coordinates":[101.7634437,3.0715392]},"properties":{"@id":"node/7737946551","name":"Taman Suntex","name:ms":"Taman Suntex","name:zh":"山力花园","name:zh-Hans":"山力花园","name:zh-Hant":"山力花園","public_transport":"stop_position","railway":"stop","ref":"SBK27","subway":"yes","wikidata":"Q22087882","wikipedia":"en:Taman Suntex MRT station"},"id":"node/7737946551"},
{"type":"Feature","geometry":{"type":"Point","coordinates":[101.7729615,3.0621569]},"properties":{"@id":"node/7737993005","name":"Sri Raya","name:en":"Sri Raya","name:ms":"Sri Raya","name:zh":"斯里拉也","name:zh-Hans":"斯里拉也","name:zh-Hant":"斯里拉也","public_transport":"stop_position","railway":"stop","ref":"SBK28","subway":"yes","wikidata":"Q22087872","wikipedia":"en:Sri Raya MRT station"},"id":"node/7737993005"},
{"type":"Feature","geometry":{"type":"Point","coordinates":[101.774992,3.0483747]},"properties":{"@id":"node/7737993050","name":"Bandar Tun Hussein Onn","name:ms":"Bandar Tun Hussein Onn","name:zh":"敦胡先翁镇","name:zh-Hans":"敦胡先翁镇","name:zh-Hant":"敦胡先翁鎮","public_transport":"stop_position","railway":"stop","ref":"SBK29","subway":"yes","wikidata":"Q22087844","wikipedia":"en:Bandar Tun Hussein Onn MRT station"},"id":"node/7737993050"},
{"type":"Feature","geometry":{"type":"Point","coordinates":[101.7733352,3.0413466]},"properties":{"@id":"node/7737993062","name":"Batu 11 Cheras","name:en":"Cheras 11 Miles","name:ms":"Batu 11 Cheras","name:zh":"蕉赖十一哩","name:zh-Hans":"蕉赖十一哩","name:zh-Hant":"蕉賴十一哩","public_transport":"stop_position","railway":"stop","ref":"SBK30","subway":"yes","wikidata":"Q22087846","wikipedia":"en:Batu 11 Cheras MRT station"},"id":"node/7737993062"},
{"type":"Feature","geometry":{"type":"Point","coordinates":[101.7710834,3.0264269]},"properties":{"@id":"node/7737993218","name":"Bukit Dukung","name:ms":"Bukit Dukung","name:zh":"武吉杜蓊","name:zh-Hans":"武吉杜蓊","name:zh-Hant":"武吉杜蓊","public_transport":"stop_position","railway":"stop","ref":"SBK31","subway":"yes"},"id":"node/7737993218"},
{"type":"Feature","geometry":{"type":"Point","coordinates":[101.7841294,3.0008213]},"properties":{"@id":"node/7738029302","name":"Sungai Jernih","name:en":"Sungai Jernih","name:ms":"Sungai Jernih","name:zh":"双溪遮内","name:zh-Hans":"双溪遮内","name:zh-Hant":"雙溪遮內","network":"Sungai Buloh-Kajang line","operator":"Rapid KL","public_transport":"stop_position","railway":"stop","ref":"SBK33","subway":"yes","wikidata":"Q22087874","wikipedia":"en:Sungai Jernih MRT station"},"id":"node/7738029302"},
{"type":"Feature","geometry":{"type":"Point","coordinates":[101.786258,2.9940951]},"properties":{"@id":"node/7738029347","name":"Stadium Kajang","name:en":"Stadium Kajang","name:ms":"Stadium Kajang","name:zh":"加影体育场","name:zh-Hans":"加影体育场","name:zh-Hant":"加影體育場","network":"Sungai Buloh-Kajang line","operator":"RapidKL","public_transport":"stop_position","railway":"stop","ref":"SBK34","subway":"yes"},"id":"node/7738029347"},
{"type":"Feature","geometry":{"type":"Point","coordinates":[101.7902509,2.9831419]},"properties":{"@id":"node/7738029383","name":"Kajang (KG)","name:en":"Kajang (KG)","name:ms":"Kajang (KG)","name:zh":"加影（捷运）","name:zh-Hans":"加影（捷运）","name:zh-Hant":"加影（捷運）","old_ref":"SBK35","public_transport":"stop_position","railway":"stop","ref":"KG35","subway":"yes","wikidata":"Q6131737","wikipedia":"en:Kajang station"},"id":"node/7738029383"},
{"type":"Feature","geometry":{"type":"Point","coordinates":[101.665598,2.9388527]},"properties":{"@id":"node/7932664086","name":"Cyberjaya City Centre","name:en":"Cyberjaya City Centre","name:zh":"赛城市中心","name:zh-Hans":"赛城市中心","name:zh-Hant":"賽城市中心","public_transport":"stop_position","railway":"stop","ref":"PY40","subway":"yes","wikidata":"Q24884606","wikipedia":"en:Cyberjaya City Centre MRT station"},"id":"node/7932664086"},
{"type":"Feature","geometry":{"type":"Point","coordinates":[101.6657303,2.938934]},"properties":{"@id":"node/7932664089","name":"Cyberjaya City Centre","name:en":"Cyberjaya City Centre","name:zh":"赛城市中心","name:zh-Hans":"赛城市中心","name:zh-Hant":"賽城市中心","public_transport":"stop_position","railway":"stop","ref":"PY40","subway":"yes","wikidata":"Q24884606","wikipedia":"en:Cyberjaya City Centre MRT station"},"id":"node/7932664089"},
{"type":"Feature","geometry":{"type":"Point","coordinates":[101.5929229,3.1998294]},"properties":{"@id":"node/8444903021","name":"Damansara Damai","name:ms":"Damansara Damai","name:zh":"白沙罗达迈","name:zh-Hans":"白沙罗达迈","name:zh-Hant":"白沙羅達邁","public_transport":"stop_position","railway":"stop","ref":"PY05","subway":"yes","wikidata":"Q24884313","wikipedia":"en:Damansara Damai MRT station"},"id":"node/8444903021"},
{"type":"Feature","geometry":{"type":"Point","coordinates":[101.7218971,3.2195523]},"properties":{"@id":"node/8764046764","light_rail":"yes","name":"Taman Melati","name:en":"Taman Melati","name:ms":"Taman Melati","name:ms-Arab":"تامن ملاتي","name:zh":"美拉蒂花园","name:zh-Hans":"美拉蒂花园","name:zh-Hant":"美拉蒂花園","public_transport":"stop_position","railway":"stop","ref":"KJ2","wikidata":"Q7680637","wikipedia":"en:Taman Melati LRT station"},"id":"node/8764046764"},
{"type":"Feature","geometry":{"type":"Point","coordinates":[101.731852,3.2057139]},"properties":{"@id":"node/8881030348","light_rail":"yes","name":"Wangsa Maju","name:ms":"Wangsa Maju","name:zh":"旺沙玛珠","name:zh-Hans":"旺沙玛珠","name:zh-Hant":"旺沙瑪珠","public_transport":"stop_position","railway":"stop","ref":"KJ3","wikidata":"Q1054313","wikipedia":"en:Wangsa Maju LRT station"},"id":"node/8881030348"},
{"type":"Feature","geometry":{"type":"Point","coordinates":[101.7244885,3.2312194]},"properties":{"@id":"node/8881030366","light_rail":"yes","name":"Gombak","name:en":"Gombak","name:ms":"Gombak","name:zh":"鹅唛","name:zh-Hans":"鹅唛","name:zh-Hant":"鵝嘜","public_transport":"stop_position","railway":"stop","ref":"KJ1"},"id":"node/8881030366"},
{"type":"Feature","geometry":{"type":"Point","coordinates":[101.5968165,2.9998789]},"properties":{"@id":"node/8944223620","light_rail":"yes","name":"Puchong Prima","name:ms":"Puchong Prima","name:zh":"蒲种柏丽玛","name:zh-Hans":"蒲种柏丽玛","name:zh-Hant":"蒲種柏麗瑪","public_transport":"stop_position","railway":"stop","ref":"SP29","wikidata":"Q25110771","wikipedia":"en:Puchong Prima LRT station"},"id":"node/8944223620"},
{"type":"Feature","geometry":{"type":"Point","coordinates":[101.6129946,3.0169277]},"properties":{"@id":"node/8944223678","light_rail":"yes","name":"Bandar Puteri","name:ms":"Bandar Puteri","name:zh":"公主城","name:zh-Hans":"公主城","name:zh-Hant":"公主城","public_transport":"stop_position","railway":"stop","ref":"SP27","wikidata":"Q23647028","wikipedia":"en:Bandar Puteri LRT station"},"id":"node/8944223678"},
{"type":"Feature","geometry":{"type":"Point","coordinates":[101.6135476,3.0227149]},"properties":{"@id":"node/8944223705","light_rail":"yes","name":"Taman Perindustrian Puchong","name:ms":"Taman Perindustrian Puchong","name:zh":"蒲种工业区","name:zh-Hans":"蒲种工业区","name:zh-Hant":"蒲種工業區","public_transport":"stop_position","railway":"stop","ref":"SP26","wikidata":"Q22674240","wikipedia":"en:Taman Perindustrian Puchong LRT station"},"id":"node/8944223705"},
{"type":"Feature","geometry":{"type":"Point","coordinates":[101.6161136,3.0332361]},"properties":{"@id":"node/8944394756","light_rail":"yes","name":"Pusat Bandar Puchong","name:ms":"Pusat Bandar Puchong","name:zh":"蒲种市中心","name:zh-Hans":"蒲种市中心","name:zh-Hant":"蒲種市中心","public_transport":"stop_position","railway":"stop","ref":"SP25","wikidata":"Q25110769","wikipedia":"en:Pusat Bandar Puchong LRT station"},"id":"node/8944394756"},
{"type":"Feature","geometry":{"type":"Point","coordinates":[101.6210567,3.0480491]},"properties":{"@id":"node/8944394786","light_rail":"yes","name":"IOI Puchong Jaya","name:ms":"IOI Puchong Jaya","name:zh":"IOI蒲种再也","name:zh-Hans":"IOI蒲种再也","name:zh-Hant":"IOI蒲種再也","public_transport":"stop_position","railway":"stop","ref":"SP24"},"id":"node/8944394786"},
{"type":"Feature","geometry":{"type":"Point","coordinates":[101.6706523,3.0620141]},"properties":{"@id":"node/8945524214","light_rail":"yes","name":"Awan Besar","name:en":"Awan Besar","name:ms":"Awan Besar","name:ms-Arab":"اون بسر","name:zh":"阿旺柏沙","name:zh-Hans":"阿旺柏沙","operator":"Rapid KL","public_transport":"stop_position","railway":"stop","ref":"SP19","wikidata":"Q21005945","wikipedia":"en:Awan Besar LRT station"},"id":"node/8945524214"},
{"type":"Feature","geometry":{"type":"Point","coordinates":[101.6626026,3.0619158]},"properties":{"@id":"node/8945536463","light_rail":"yes","name":"Muhibbah","name:en":"Muhibbah","name:ms":"Muhibbah","name:ms-Arab":"محبه","name:zh":"亲善","name:zh-Hans":"亲善","name:zh-Hant":"親善","public_transport":"stop_position","railway":"stop","ref":"SP20","wikidata":"Q25109920","wikipedia":"en:Muhibbah LRT station"},"id":"node/8945536463"},
{"type":"Feature","geometry":{"type":"Point","coordinates":[101.6870879,3.0614989]},"properties":{"@id":"node/8950363112","light_rail":"yes","name":"Sri Petaling","name:en":"Sri Petaling","name:ms":"Sri Petaling","name:ms-Arab":"سري ڤتاليڠ","name:zh":"大城堡","name:zh-Hans":"大城堡","name:zh-Hant":"大城堡","operator":"Rapid KL","public_transport":"stop_position","railway":"stop","ref":"SP18","wikidata":"Q7586185","wikipedia":"en:Sri Petaling LRT station"},"id":"node/8950363112"},
{"type":"Feature","geometry":{"type":"Point","coordinates":[101.6482091,3.2117442]},"properties":{"@id":"node/9221724472","name":"Kepong Baru","name:en":"Kepong Baru","name:ms":"Kepong Baru","name:ms-Arab":"كڤوڠ بارو","name:zh":"甲洞卫星市","name:zh-Hans":"甲洞卫星市","name:zh-Hant":"甲洞衛星市","public_transport":"stop_position","railway":"stop","ref":"PY10","subway":"yes","wikidata":"Q24884373","wikipedia":"en:Kepong Baru MRT station"},"id":"node/9221724472"},
{"type":"Feature","geometry":{"type":"Point","coordinates":[101.7269504,3.12325]},"properties":{"@id":"node/9704514019","light_rail":"yes","name":"Maluri","name:en":"Maluri","name:ms":"Maluri","name:ms-Arab":"مالوري","name:zh":"马鲁里","name:zh-Hans":"马鲁里","name:zh-Hant":"馬魯裡","public_transport":"stop_position","railway":"stop","ref":"AG13","wikidata":"Q6744979","wikipedia":"en:Maluri station"},"id":"node/9704514019"},
{"type":"Feature","geometry":{"type":"Point","coordinates":[101.7390046,3.1302316]},"properties":{"@id":"node/9704514026","light_rail":"yes","name":"Pandan Jaya","name:ms":"Pandan Jaya","name:zh":"班登再也","name:zh-Hans":"班登再也","name:zh-Hant":"班登再也","public_transport":"stop_position","railway":"stop","ref":"AG14"},"id":"node/9704514026"},
{"type":"Feature","geometry":{"type":"Point","coordinates":[101.7466867,3.1347495]},"properties":{"@id":"node/9704514037","light_rail":"yes","name":"Pandan Indah","name:ms":"Pandan Indah","name:zh":"班登英达","name:zh-Hans":"班登英达","name:zh-Hant":"班登英達","public_transport":"stop_position","railway":"stop","ref":"AG15","wikidata":"Q7130483","wikipedia":"en:Pandan Indah LRT station"},"id":"node/9704514037"},
{"type":"Feature","geometry":{"type":"Point","coordinates":[101.7530639,3.138466]},"properties":{"@id":"node/9704514040","light_rail":"yes","name":"Cempaka","name:en":"Cempaka","name:ms":"Cempaka","name:zh":"千百家","name:zh-Hans":"千百家","name:zh-Hant":"千百家","public_transport":"stop_position","railway":"stop","ref":"AG16","wikidata":"Q12709672","wikipedia":"en:Cempaka LRT station"},"id":"node/9704514040"},
{"type":"Feature","geometry":{"type":"Point","coordinates":[101.7566076,3.1406183]},"properties":{"@id":"node/9704514044","light_rail":"yes","name":"Cahaya","name:ms":"Cahaya","name:zh":"丽阳","name:zh-Hans":"丽阳","name:zh-Hant":"麗陽","public_transport":"stop_position","railway":"stop","ref":"AG17","wikidata":"Q5017395","wikipedia":"en:Cahaya LRT station"},"id":"node/9704514044"},
{"type":"Feature","geometry":{"type":"Point","coordinates":[101.7601684,3.1505103]},"properties":{"@id":"node/9704514070","light_rail":"yes","name":"Ampang","name:en":"Ampang","name:ms":"Ampang","name:zh":"安邦","name:zh-Hans":"安邦","name:zh-Hant":"安邦","public_transport":"stop_position","railway":"stop","ref":"AG18","wikidata":"Q4748041","wikipedia":"en:Ampang LRT station"},"id":"node/9704514070"},
{"type":"Feature","geometry":{"type":"Point","coordinates":[101.7142995,3.1127677]},"properties":{"@id":"node/9704785962","light_rail":"yes","name":"Cheras","name:en":"Cheras","name:ms":"Cheras","name:ms-Arab":"چراس","name:zh":"蕉赖","name:zh-Hans":"蕉赖","name:zh-Hant":"蕉賴","public_transport":"stop_position","railway":"stop","ref":"SP12","wikidata":"Q567251","wikipedia":"en:Cheras LRT station"},"id":"node/9704785962"},
{"type":"Feature","geometry":{"type":"Point","coordinates":[101.7062906,3.1020837]},"properties":{"@id":"node/9704785981","light_rail":"yes","name":"Salak Selatan","name:en":"Salak Selatan","name:ms":"Salak Selatan","name:ms-Arab":"سالق سلاتن‎","name:zh":"沙叻秀","name:zh-Hans":"沙叻秀","name:zh-Hant":"沙叻秀","public_transport":"stop_position","railway":"stop","ref":"SP13","wikidata":"Q7403493","wikipedia":"en:Salak Selatan LRT station"},"id":"node/9704785981"},
{"type":"Feature","geometry":{"type":"Point","coordinates":[101.6952791,3.1858245]},"properties":{"@id":"node/9704840092","light_rail":"yes","name":"Sentul Timur","name:en":"Sentul Timur","name:ms":"Sentul Timur","name:ms-Arab":"سنتول تيمور","name:zh":"冼都东","name:zh-Hans":"冼都东","name:zh-Hant":"冼都東","public_transport":"stop_position","railway":"stop","ref":"AG1;SP1","wikidata":"Q27146","wikipedia":"en:Sentul Timur LRT station"},"id":"node/9704840092"},
{"type":"Feature","geometry":{"type":"Point","coordinates":[101.6796622,3.1953316]},"properties":{"@id":"node/9755011835","name":"Kentonmen","name:en":"Kentonmen","name:ms":"Kentonmen","name:ms-Arab":"كنتونمن","name:zh":"肯都门","name:zh-Hans":"肯都门","name:zh-Hant":"肯都門","public_transport":"stop_position","railway":"stop","ref":"PY14","subway":"yes"},"id":"node/9755011835"},
{"type":"Feature","geometry":{"type":"Point","coordinates":[101.6796178,3.1953293]},"properties":{"@id":"node/9755011836","name":"Kentonmen","name:en":"Kentonmen","name:ms":"Kentonmen","name:ms-Arab":"كنتونمن","name:zh":"肯都门","name:zh-Hans":"肯都门","name:zh-Hant":"肯都門","public_transport":"stop_position","railway":"stop","ref":"PY14","subway":"yes"},"id":"node/9755011836"},
{"type":"Feature","geometry":{"type":"Point","coordinates":[101.681171,3.1894372]},"properties":{"@id":"node/9755011837","name":"Jalan Ipoh","name:en":"Jalan Ipoh","name:ms":"Jalan Ipoh","name:ms-Arab":"جالن ايڤوه","name:zh":"怡保路","name:zh-Hans":"Jalan Ipoh","name:zh-Hant":"怡保路","public_transport":"stop_position","railway":"stop","ref":"PY15","subway":"yes"},"id":"node/9755011837"},
{"type":"Feature","geometry":{"type":"Point","coordinates":[101.6810403,3.1893934]},"properties":{"@id":"node/9755011838","name":"Jalan Ipoh","name:en":"Jalan Ipoh","name:ms":"Jalan Ipoh","name:ms-Arab":"جالن ايڤوه","name:zh":"怡保路","name:zh-Hans":"怡保路","name:zh-Hant":"怡保路","public_transport":"stop_position","railway":"stop","ref":"PY15","subway":"yes"},"id":"node/9755011838"},
{"type":"Feature","geometry":{"type":"Point","coordinates":[101.6753371,3.205889]},"properties":{"@id":"node/9755011839","name":"Kampung Batu (PY)","name:en":"Kampung Batu (PY)","name:ms":"Kampung Batu (PY)","name:ms-Arab":"كامڤوڠ باتو (لالوان ڤوتراجاي)","name:zh":"甘榜峇都（捷运）","name:zh-Hans":"甘榜峇都（捷运）","name:zh-Hant":"甘榜峇都（捷運）","public_transport":"stop_position","railway":"stop","ref":"PY13","subway":"yes","wikidata":"Q6359403","wikipedia":"en:Kampung Batu station"},"id":"node/9755011839"},
{"type":"Feature","geometry":{"type":"Point","coordinates":[101.6752146,3.2057868]},"properties":{"@id":"node/9755011840","name":"Kampung Batu (PY)","name:en":"Kampung Batu (PY)","name:ms":"Kampung Batu (PY)","name:ms-Arab":"كامڤوڠ باتو (لالوان ڤوتراجاي)","name:zh":"甘榜峇都（捷运）","name:zh-Hans":"甘榜峇都（捷运）","name:zh-Hant":"甘榜峇都（捷運）","public_transport":"stop_position","railway":"stop","ref":"PY13","subway":"yes","wikidata":"Q6359403","wikipedia":"en:Kampung Batu station"},"id":"node/9755011840"},
{"type":"Feature","geometry":{"type":"Point","coordinates":[101.6656119,3.2072532]},"properties":{"@id":"node/9833287689","name":"Sri Delima","name:en":"Sri Delima","name:ms":"Sri Delima","name:ms-Arab":"سري دليما","name:zh":"斯里德里玛","name:zh-Hans":"斯里德里玛","name:zh-Hant":"斯里德里瑪","public_transport":"stop_position","railway":"stop","ref":"PY12","subway":"yes"},"id":"node/9833287689"},
{"type":"Feature","geometry":{"type":"Point","coordinates":[101.6655589,3.207121]},"properties":{"@id":"node/9833287690","name":"Sri Delima","name:en":"Sri Delima","name:ms":"Sri Delima","name:ms-Arab":"سري دليما","name:zh":"斯里德里玛","name:zh-Hans":"斯里德里玛","name:zh-Hant":"斯里德里瑪","public_transport":"stop_position","railway":"stop","ref":"PY12","subway":"yes"},"id":"node/9833287690"},
{"type":"Feature","geometry":{"type":"Point","coordinates":[101.6559176,3.2096165]},"properties":{"@id":"node/9833287691","name":"Jinjang","name:en":"Jinjang","name:ms":"Jinjang","name:ms-Arab":"جينجڠ","name:zh":"增江","public_transport":"stop_position","railway":"stop","ref":"PY11","subway":"yes"},"id":"node/9833287691"},
{"type":"Feature","geometry":{"type":"Point","coordinates":[101.6559236,3.2094755]},"properties":{"@id":"node/9833287692","name":"Jinjang","name:en":"Jinjang","name:ms":"Jinjang","name:ms-Arab":"جينجڠ","name:zh":"增江","public_transport":"stop_position","railway":"stop","ref":"PY11","subway":"yes"},"id":"node/9833287692"},
{"type":"Feature","geometry":{"type":"Point","coordinates":[101.6481367,3.2116171]},"properties":{"@id":"node/9833371330","name":"Kepong Baru","name:en":"Kepong Baru","name:ms":"Kepong Baru","name:ms-Arab":"كڤوڠ بارو","name:zh":"甲洞卫星市","name:zh-Hans":"甲洞卫星市","name:zh-Hant":"甲洞衛星市","public_transport":"stop_position","railway":"stop","ref":"PY10","subway":"yes","wikidata":"Q24884373","wikipedia":"en:Kepong Baru MRT station"},"id":"node/9833371330"},
{"type":"Feature","geometry":{"type":"Point","coordinates":[101.5928857,3.199691]},"properties":{"@id":"node/9849592619","name":"Damansara Damai","name:en":"Damansara Damai","name:ms":"Damansara Damai","name:zh":"白沙罗达迈","name:zh-Hans":"白沙罗达迈","name:zh-Hant":"白沙羅達邁","public_transport":"stop_position","railway":"stop","ref":"PY05","subway":"yes","wikidata":"Q24884313","wikipedia":"en:Damansara Damai MRT station"},"id":"node/9849592619"},
{"type":"Feature","geometry":{"type":"Point","coordinates":[101.6211352,3.1985883]},"properties":{"@id":"node/9849953863","name":"Sri Damansara Sentral","name:en":"Sri Damansara Sentral","name:ms":"Sri Damansara Sentral","name:zh":"斯里白沙罗中心","name:zh-Hans":"斯里白沙罗中心","name:zh-Hant":"斯里白沙羅中心","public_transport":"stop_position","railway":"stop","ref":"PY07","subway":"yes","wikidata":"Q24884352","wikipedia":"en:Sri Damansara Sentral MRT station"},"id":"node/9849953863"},
{"type":"Feature","geometry":{"type":"Point","coordinates":[101.6285337,3.207665]},"properties":{"@id":"node/9849953864","name":"Sri Damansara Timur","name:en":"Sri Damansara Timur","name:ms":"Sri Damansara Timur","name:zh":"斯里白沙罗东","name:zh-Hans":"斯里白沙罗东","name:zh-Hant":"斯里白沙羅東","public_transport":"stop_position","railway":"stop","ref":"PY08","subway":"yes","wikidata":"Q108887917","wikipedia":"en:Sri Damansara Timur MRT station"},"id":"node/9849953864"},
{"type":"Feature","geometry":{"type":"Point","coordinates":[101.6286753,3.2075902]},"properties":{"@id":"node/9849953872","name":"Sri Damansara Timur","name:en":"Sri Damansara Timur","name:ms":"Sri Damansara Timur","name:zh":"斯里白沙罗东","name:zh-Hans":"斯里白沙罗东","name:zh-Hant":"斯里白沙羅東","public_transport":"stop_position","railway":"stop","ref":"PY08","subway":"yes","wikidata":"Q108887917","wikipedia":"en:Sri Damansara Timur MRT station"},"id":"node/9849953872"},
{"type":"Feature","geometry":{"type":"Point","coordinates":[101.6403808,3.2145991]},"properties":{"@id":"node/9849953873","name":"Metro Prima","name:en":"Metro Prima","name:ms":"Metro Prima","name:ms-Arab":"ميترو ڤريما","name:zh":"美娜园","name:zh-Hans":"美娜园","name:zh-Hant":"美娜園","public_transport":"stop_position","railway":"stop","ref":"PY09","subway":"yes","wikidata":"Q24884356","wikipedia":"en:Metro Prima MRT station"},"id":"node/9849953873"},
{"type":"Feature","geometry":{"type":"Point","coordinates":[101.6403969,3.2144521]},"properties":{"@id":"node/9849953874","name":"Metro Prima","name:en":"Metro Prima","name:ms":"Metro Prima","name:ms-Arab":"ميترو ڤريما","name:zh":"美娜园","name:zh-Hans":"美娜园","name:zh-Hant":"美娜園","public_transport":"stop_position","railway":"stop","ref":"PY09","subway":"yes","wikidata":"Q24884356","wikipedia":"en:Metro Prima MRT station"},"id":"node/9849953874"},
{"type":"Feature","geometry":{"type":"Point","coordinates":[101.5880808,3.0350344]},"properties":{"@id":"node/9857685666","light_rail":"yes","name":"Wawasan","name:ms":"Wawasan","name:zh":"宏愿","name:zh-Hans":"宏愿","name:zh-Hant":"宏願","public_transport":"stop_position","railway":"stop","ref":"KJ33","wikidata":"Q24088908","wikipedia":"en:Wawasan LRT station"},"id":"node/9857685666"},
{"type":"Feature","geometry":{"type":"Point","coordinates":[101.5901798,3.0478597]},"properties":{"@id":"node/9857685679","light_rail":"yes","name":"Taipan","name:en":"Taipan","name:ms":"Taipan","name:zh":"大班","name:zh-Hans":"大班","name:zh-Hant":"大班","public_transport":"stop_position","railway":"stop","ref":"KJ32","wikidata":"Q23058714","wikipedia":"en:Taipan LRT station"},"id":"node/9857685679"},
{"type":"Feature","geometry":{"type":"Point","coordinates":[101.591941,3.0548355]},"properties":{"@id":"node/9857685687","light_rail":"yes","name":"USJ7","name:en":"USJ7","name:ms":"USJ7","name:zh":"USJ7区","name:zh-Hans":"USJ7区","name:zh-Hant":"USJ7區","public_transport":"stop_position","railway":"stop","ref":"KJ31","wikidata":"Q23058763","wikipedia":"en:USJ 7 station"},"id":"node/9857685687"},
{"type":"Feature","geometry":{"type":"Point","coordinates":[101.5913449,3.1119766]},"properties":{"@id":"node/9857685784","light_rail":"yes","name":"Lembah Subang","name:ms":"Lembah Subang","name:zh":"梳邦谷","name:zh-Hans":"梳邦谷","name:zh-Hant":"梳邦谷","public_transport":"stop_position","railway":"stop","ref":"KJ25","wikidata":"Q25110772","wikipedia":"en:Lembah Subang LRT station"},"id":"node/9857685784"},
{"type":"Feature","geometry":{"type":"Point","coordinates":[101.6127232,3.1107156]},"properties":{"@id":"node/9857685811","light_rail":"yes","name":"Taman Bahagia","name:ms":"Taman Bahagia","name:zh":"幸福花园","name:zh-Hans":"幸福花园","name:zh-Hant":"幸福花園","network":"Kelana Jaya Line","operator":"Rapid KL","public_transport":"stop_position","railway":"stop","ref":"KJ23","wikidata":"Q986438","wikipedia":"en:Taman Bahagia LRT station"},"id":"node/9857685811"},
{"type":"Feature","geometry":{"type":"Point","coordinates":[101.6231844,3.1047121]},"properties":{"@id":"node/9857685820","light_rail":"yes","name":"Taman Paramount","name:zh":"百乐花园","network":"Kelana Jaya Line","operator":"Rapid KL","public_transport":"stop_position","railway":"stop","ref":"KJ22"},"id":"node/9857685820"},
{"type":"Feature","geometry":{"type":"Point","coordinates":[101.6453017,3.1040847]},"properties":{"@id":"node/9857685841","light_rail":"yes","name":"Taman Jaya","name:en":"Taman Jaya","name:ms":"Taman Jaya","name:ta":"தமன் ஜெயா","name:zh":"再也花园","name:zh-Hans":"再也花园","name:zh-Hant":"再也花園","operator":"Rapid KL","public_transport":"stop_position","railway":"stop","ref":"KJ20","wikidata":"Q7680629","wikipedia":"en:Taman Jaya LRT station"},"id":"node/9857685841"},
{"type":"Feature","geometry":{"type":"Point","coordinates":[101.6685112,3.1154543]},"properties":{"@id":"node/9857685871","light_rail":"yes","name":"Kerinchi","name:en":"Kerinchi","name:ms":"Kerinchi","name:ms-Arab":"كرينچي","name:zh":"格灵芝","name:zh-Hans":"格灵芝","name:zh-Hant":"格靈芝","public_transport":"stop_position","railway":"stop","ref":"KJ18","wikidata":"Q6131677","wikipedia":"en:Kerinchi LRT station"},"id":"node/9857685871"},
{"type":"Feature","geometry":{"type":"Point","coordinates":[101.6790964,3.1275364]},"properties":{"@id":"node/9857685906","light_rail":"yes","name":"Bangsar","name:en":"Bangsar","name:ms":"Bangsar","name:ms-Arab":"بڠسر","name:zh":"孟沙","name:zh-Hans":"孟沙","name:zh-Hant":"孟沙","public_transport":"stop_position","railway":"stop","ref":"KJ16","wikidata":"Q4855626","wikipedia":"en:Bank Rakyat-Bangsar LRT station"},"id":"node/9857685906"},
{"type":"Feature","geometry":{"type":"Point","coordinates":[101.6865338,3.1340967]},"properties":{"@id":"node/9857685923","level":"2","light_rail":"yes","name":"KL Sentral (KJ)","name:en":"KL Sentral (KJ)","name:ms":"KL Sentral (KJ)","name:ms-Arab":"كوالا لومڤور سينترال (لالوان كلنا جاي)","name:zh":"吉隆坡中央（格拉那再也线）","name:zh-Hans":"吉隆坡中央（格拉那再也线）","name:zh-Hant":"吉隆坡中央（格拉那再也線）","public_transport":"stop_position","railway":"stop","ref":"KJ15","wikidata":"Q801042","wikipedia":"en:Kuala Lumpur Sentral station"},"id":"node/9857685923"},
{"type":"Feature","geometry":{"type":"Point","coordinates":[101.697003,3.1499051]},"properties":{"@id":"node/9857685952","full_name":"Masjid Jamek LRT Station","light_rail":"yes","name":"Masjid Jamek","name:en":"Masjid Jamek","name:ms":"Masjid Jamek","name:ms-Arab":"مسجد جامع","name:zh":"占美清真寺","name:zh-Hans":"占美清真寺","name:zh-Hant":"占美清真寺","network":"Kelana Jaya Line","operator":"Rapid KL","public_transport":"stop_position","railway":"stop","ref":"KJ13","wikidata":"Q1055044","wikipedia":"en:Masjid Jamek LRT station"},"id":"node/9857685952"},
{"type":"Feature","geometry":{"type":"Point","coordinates":[101.7019645,3.156852]},"properties":{"@id":"node/9857685964","light_rail":"yes","name":"Dang Wangi","name:en":"Dang Wangi","name:ms":"Dang Wangi","name:ms-Arab":"دڠ واڠي","name:zh":"金马律","name:zh-Hans":"金马律","name:zh-Hant":"金馬律","public_transport":"stop_position","railway":"stop","ref":"KJ12","wikidata":"Q1055068","wikipedia":"en:Dang Wangi LRT station"},"id":"node/9857685964"},
{"type":"Feature","geometry":{"type":"Point","coordinates":[101.7067986,3.1612696]},"properties":{"@id":"node/9857685973","light_rail":"yes","name":"Kampung Baru","name:en":"Kampung Baru","name:ms":"Kampung Baru","name:ms-Arab":"كامڤوڠ بارو","name:zh":"甘榜峇鲁","name:zh-Hans":"甘榜峇鲁","name:zh-Hant":"甘榜峇魯","public_transport":"stop_position","railway":"stop","ref":"KJ11","wikidata":"Q1055063","wikipedia":"en:Kampung Baru LRT station"},"id":"node/9857685973"},
{"type":"Feature","geometry":{"type":"Point","coordinates":[101.7133606,3.1591628]},"properties":{"@id":"node/9857685983","light_rail":"yes","name":"KLCC","name:en":"KLCC","name:ms":"KLCC","name:ms-Arab":"كي ايل سي سي","name:zh":"城中城","name:zh-Hans":"城中城","name:zh-Hant":"城中城","public_transport":"stop_position","railway":"stop","ref":"KJ10","wikidata":"Q1054307","wikipedia":"en:KLCC LRT station"},"id":"node/9857685983"},
{"type":"Feature","geometry":{"type":"Point","coordinates":[101.7191422,3.1600053]},"properties":{"@id":"node/9857685991","light_rail":"yes","name":"Ampang Park","name:en":"Ampang Park","name:ms":"Ampang Park","name:ms-Arab":"امڤاڠ ڤرق","name:zh":"安邦购物中心","name:zh-Hans":"安邦购物中心","name:zh-Hant":"安邦購物中心","public_transport":"stop_position","railway":"stop","ref":"KJ9","wikidata":"Q1054301","wikipedia":"en:Ampang Park station"},"id":"node/9857685991"},
{"type":"Feature","geometry":{"type":"Point","coordinates":[101.7318741,3.1650344]},"properties":{"@id":"node/9857686011","light_rail":"yes","name":"Dato' Keramat","name:en":"Dato' Keramat","name:ms":"Dato' Keramat","name:ms-Arab":"داتوء كرامات","name:ta":"ட்டோ கேரமாத்","name:zh":"拿督克拉末","name:zh-Hans":"拿督克拉末","name:zh-Hant":"拿督克拉末","public_transport":"stop_position","railway":"stop","ref":"KJ7","wikidata":"Q5227689","wikipedia":"en:Dato' Keramat LRT station"},"id":"node/9857686011"},
{"type":"Feature","geometry":{"type":"Point","coordinates":[101.7353251,3.1673172]},"properties":{"@id":"node/9857686023","light_rail":"yes","name":"Jelatek","name:en":"Jelatek","name:ms":"Jelatek","name:zh":"遮拉迪","name:zh-Hans":"遮拉迪","name:zh-Hant":"遮拉迪","public_transport":"stop_position","railway":"stop","ref":"KJ6"},"id":"node/9857686023"},
{"type":"Feature","geometry":{"type":"Point","coordinates":[101.7373096,3.1991449]},"properties":{"@id":"node/9857686054","light_rail":"yes","name":"Sri Rampai","name:en":"Sri Rampai","name:ms":"Sri Rampai","name:ms-Arab":"سري رامڤأي","name:zh":"南北花园","name:zh-Hans":"南北花园","name:zh-Hant":"南北花園","public_transport":"stop_position","railway":"stop","ref":"KJ4","wikidata":"Q7586225","wikipedia":"en:Sri Rampai LRT station"},"id":"node/9857686054"},
{"type":"Feature","geometry":{"type":"Point","coordinates":[101.5862183,3.0756919]},"properties":{"@id":"node/9867488349","light_rail":"yes","name":"SS15","name:en":"SS15","name:ms":"SS15","name:zh":"SS15区","name:zh-Hans":"SS15区","name:zh-Hant":"SS15區","public_transport":"stop_position","railway":"stop","ref":"KJ29","wikidata":"Q23058698","wikipedia":"en:SS15 LRT station"},"id":"node/9867488349"},
{"type":"Feature","geometry":{"type":"Point","coordinates":[101.5904941,3.0959571]},"properties":{"@id":"node/9867488350","light_rail":"yes","name":"Glenmarie","name:en":"Glenmarie","name:ms":"Glenmarie","name:zh":"格林玛丽","name:zh-Hans":"格林玛丽","name:zh-Hant":"格林瑪麗","public_transport":"stop_position","railway":"stop","ref":"KJ27","wikidata":"Q24944303","wikipedia":"en:Glenmarie LRT station"},"id":"node/9867488350"},
{"type":"Feature","geometry":{"type":"Point","coordinates":[101.6044811,3.1123941]},"properties":{"@id":"node/9867488351","light_rail":"yes","name":"Kelana Jaya","name:en":"Kelana Jaya","name:ms":"Kelana Jaya","name:zh":"格拉那再也","name:zh-Hans":"格拉那再也","name:zh-Hant":"格拉那再也","public_transport":"stop_position","railway":"stop","ref":"KJ24","wikidata":"Q986580","wikipedia":"en:Kelana Jaya LRT station"},"id":"node/9867488351"},
{"type":"Feature","geometry":{"type":"Point","coordinates":[101.637763,3.1043006]},"properties":{"@id":"node/9867488352","light_rail":"yes","name":"Asia Jaya","name:en":"Asia Jaya","name:ms":"Asia Jaya","name:zh":"亚洲再也","name:zh-Hans":"亚洲再也","name:zh-Hant":"亞洲再也","public_transport":"stop_position","railway":"stop","ref":"KJ21","wikidata":"Q1057409","wikipedia":"en:Asia Jaya LRT station"},"id":"node/9867488352"},
{"type":"Feature","geometry":{"type":"Point","coordinates":[101.5817694,3.0297541]},"properties":{"@id":"node/9867488361","light_rail":"yes","name":"USJ21","name:en":"USJ21","name:ms":"USJ21","name:zh":"USJ21区","name:zh-Hans":"USJ21区","name:zh-Hant":"USJ21區","public_transport":"stop_position","railway":"stop","ref":"KJ34","wikidata":"Q23058762","wikipedia":"en:USJ 21 LRT station"},"id":"node/9867488361"},
{"type":"Feature","geometry":{"type":"Point","coordinates":[101.5721019,3.0230705]},"properties":{"@id":"node/9867488362","light_rail":"yes","name":"Alam Megah","name:ms":"Alam Megah","name:zh":"美佳园","name:zh-Hans":"美佳园","name:zh-Hant":"美佳園","public_transport":"stop_position","railway":"stop","ref":"KJ35","wikidata":"Q23057832","wikipedia":"en:Alam Megah LRT station"},"id":"node/9867488362"},
{"type":"Feature","geometry":{"type":"Point","coordinates":[101.5721901,3.009704]},"properties":{"@id":"node/9867488363","light_rail":"yes","name":"Subang Alam","name:ms":"Subang Alam","name:zh":"梳邦阿南","name:zh-Hans":"梳邦阿南","name:zh-Hant":"梳邦阿南","public_transport":"stop_position","railway":"stop","ref":"KJ36","wikidata":"Q23058703","wikipedia":"en:Subang Alam LRT station"},"id":"node/9867488363"},
{"type":"Feature","geometry":{"type":"Point","coordinates":[101.7178492,3.1209399]},"properties":{"@id":"node/9867631715","light_rail":"yes","name":"Miharja","name:en":"Miharja","name:ms":"Miharja","name:ms-Arab":"ميهرجا","name:zh":"美和家","name:zh-Hans":"美和家","name:zh-Hant":"美和家","public_transport":"stop_position","railway":"stop","ref":"AG12","wikidata":"Q6845255","wikipedia":"en:Miharja LRT station"},"id":"node/9867631715"},
{"type":"Feature","geometry":{"type":"Point","coordinates":[101.7154716,3.1277686]},"properties":{"@id":"node/9867631716","light_rail":"yes","name":"Chan Sow Lin","name:en":"Chan Sow Lin","name:ms":"Chan Sow Lin","name:ms-Arab":"چن ساو لين","name:zh":"陈秀连","name:zh-Hans":"陈秀连","name:zh-Hant":"陳秀連","public_transport":"stop_position","railway":"stop","ref":"AG11;SP11","station":"light_rail"},"id":"node/9867631716"},
{"type":"Feature","geometry":{"type":"Point","coordinates":[101.7155705,3.1277571]},"properties":{"@id":"node/9867635517","light_rail":"yes","name":"Chan Sow Lin","name:en":"Chan Sow Lin","name:ms":"Chan Sow Lin","name:ms-Arab":"چن ساو لين","name:zh":"陈秀连","name:zh-Hans":"陈秀连","name:zh-Hant":"陳秀連","public_transport":"stop_position","railway":"stop","ref":"AG11;SP11","station":"light_rail"},"id":"node/9867635517"},
{"type":"Feature","geometry":{"type":"Point","coordinates":[101.7120144,3.1349208]},"properties":{"@id":"node/9867635518","light_rail":"yes","name":"Pudu","name:en":"Pudu","name:ja":"プドゥ","name:ms":"Pudu","name:ms-Arab":"ڤودو","name:ta":"புது","name:zh":"半山芭","name:zh-Hans":"半山芭","name:zh-Hant":"半山芭","public_transport":"stop_position","railway":"stop","ref":"AG10;SP10","wikidata":"Q6150815","wikipedia":"en:Pudu LRT station"},"id":"node/9867635518"},
{"type":"Feature","geometry":{"type":"Point","coordinates":[101.7061351,3.1398418]},"properties":{"@id":"node/9867635519","light_rail":"yes","name":"Hang Tuah","name:en":"Hang Tuah","name:ja":"ハン・トゥア","name:ms":"Hang Tuah","name:ms-Arab":"هڠ تواه","name:ta":"ஹங் துஅஹ்","name:zh":"汉都亚","name:zh-Hans":"汉都亚","name:zh-Hant":"漢都亞","public_transport":"stop_position","railway":"stop","ref":"AG9;SP9","wikidata":"Q27142","wikipedia":"en:BBCC-Hang Tuah station"},"id":"node/9867635519"},
{"type":"Feature","geometry":{"type":"Point","coordinates":[101.7017675,3.1445346]},"properties":{"@id":"node/9867635520","light_rail":"yes","name":"Plaza Rakyat","name:en":"Plaza Rakyat","name:ms":"Plaza Rakyat","name:ms-Arab":"ڤلازا رعيت","name:zh":"人民广场","name:zh-Hans":"人民广场","name:zh-Hant":"人民廣場","public_transport":"stop_position","railway":"stop","ref":"AG8;SP8","wikidata":"Q6150701","wikipedia":"en:Plaza Rakyat LRT station"},"id":"node/9867635520"},
{"type":"Feature","geometry":{"type":"Point","coordinates":[101.6963912,3.1494545]},"properties":{"@id":"node/9867635521","light_rail":"yes","name":"Masjid Jamek (AG SP)","name:en":"Masjid Jamek (AG SP)","name:ja":"マスジット・ジャメ","name:ms":"Masjid Jamek","name:ms-Arab":"مسجد جامع (لالوان امڤاڠ)","name:ta":"ஜமேக் மசூதி","name:zh":"占美清真寺","name:zh-Hans":"占美清真寺","name:zh-Hant":"占美清真寺","public_transport":"stop_position","railway":"stop","ref":"AG7;SP7","station":"light_rail","wikidata":"Q1055044","wikipedia":"en:Masjid Jamek LRT station"},"id":"node/9867635521"},
{"type":"Feature","geometry":{"type":"Point","coordinates":[101.6944188,3.1555568]},"properties":{"@id":"node/9867635522","light_rail":"yes","name":"Bandaraya","name:en":"Bandaraya","name:ms":"Bandaraya","name:ms-Arab":"بندارايا","name:zh":"市政局","name:zh-Hans":"市政局","name:zh-Hant":"市政局","public_transport":"stop_position","railway":"stop","ref":"AG6;SP6","wikidata":"Q4854452","wikipedia":"en:Bandaraya LRT station"},"id":"node/9867635522"},
{"type":"Feature","geometry":{"type":"Point","coordinates":[101.6940974,3.1611898]},"properties":{"@id":"node/9867635523","light_rail":"yes","name":"Sultan Ismail","name:en":"Sultan Ismail","name:ms":"Sultan Ismail","name:ms-Arab":"سلطان اسماعيل","name:zh":"苏丹依斯迈","name:zh-Hans":"苏丹依斯迈","name:zh-Hant":"蘇丹依斯邁","public_transport":"stop_position","railway":"stop","ref":"AG5;SP5"},"id":"node/9867635523"},
{"type":"Feature","geometry":{"type":"Point","coordinates":[101.6935652,3.1665617]},"properties":{"@id":"node/9867635524","light_rail":"yes","name":"PWTC","name:en":"PWTC","name:ms":"PWTC","name:ms-Arab":"ڤي دبليو تي سي","name:zh":"布特拉世界贸易中心","name:zh-Hans":"布特拉世界贸易中心","name:zh-Hant":"布特拉世界貿易中心","public_transport":"stop_position","railway":"stop","ref":"AG4;SP4"},"id":"node/9867635524"},
{"type":"Feature","geometry":{"type":"Point","coordinates":[101.6952108,3.1735816]},"properties":{"@id":"node/9867635525","light_rail":"yes","name":"Titiwangsa","name:en":"Titiwangsa","name:ms":"Titiwangsa","name:ms-Arab":"تيتيوڠسا","name:zh":"蒂蒂旺沙","name:zh-Hans":"蒂蒂旺沙","name:zh-Hant":"蒂蒂旺沙","operator":"Rapid KL","public_transport":"stop_position","railway":"stop","ref":"AG3;SP3","wikidata":"Q27144","wikipedia":"en:Titiwangsa station"},"id":"node/9867635525"},
{"type":"Feature","geometry":{"type":"Point","coordinates":[101.6954658,3.178568]},"properties":{"@id":"node/9867635526","light_rail":"yes","name":"Sentul","name:en":"Sentul","name:ms":"Sentul","name:ms-Arab":"سنتول‎","name:zh":"冼都","name:zh-Hans":"冼都","name:zh-Hant":"冼都","public_transport":"stop_position","railway":"stop","ref":"AG2;SP2","wikidata":"Q27140","wikipedia":"en:Sentul LRT station"},"id":"node/9867635526"},
{"type":"Feature","geometry":{"type":"Point","coordinates":[101.6565354,3.0546486]},"properties":{"@id":"node/9867662584","light_rail":"yes","name":"Alam Sutera","name:ms":"Alam Sutera","name:zh":"阿南苏特拉","name:zh-Hans":"阿南苏特拉","name:zh-Hant":"阿南蘇特拉","public_transport":"stop_position","railway":"stop","ref":"SP21","wikidata":"Q23763025","wikipedia":"en:Alam Sutera LRT station"},"id":"node/9867662584"},
{"type":"Feature","geometry":{"type":"Point","coordinates":[101.6921982,3.0581261]},"properties":{"@id":"node/9867662585","light_rail":"yes","name":"Bukit Jalil","name:en":"Bukit Jalil","name:ms":"Bukit Jalil","name:ms-Arab":"بوكيت جليل","name:zh":"武吉加里尔","name:zh-Hans":"武吉加里尔","name:zh-Hant":"武吉加里爾","public_transport":"stop_position","railway":"stop","ref":"SP17","wikidata":"Q4986903","wikipedia":"en:Bukit Jalil LRT station"},"id":"node/9867662585"},
{"type":"Feature","geometry":{"type":"Point","coordinates":[101.7080538,3.0639307]},"properties":{"@id":"node/9867662586","light_rail":"yes","name":"Sungai Besi","name:en":"Sungai Besi","name:ms":"Sungai Besi","name:ms-Arab":"سوڠاي بسي","name:zh":"新街场","name:zh-Hans":"新街场","name:zh-Hant":"新街場","public_transport":"stop_position","railway":"stop","ref":"SP16","wikidata":"Q7640133","wikipedia":"en:Sungai Besi station"},"id":"node/9867662586"},
{"type":"Feature","geometry":{"type":"Point","coordinates":[101.7112369,3.0761577]},"properties":{"@id":"node/9867662587","light_rail":"yes","name":"Bandar Tasik Selatan","name:en":"Bandar Tasik Selatan","name:ms":"Bandar Tasik Selatan","name:ms-Arab":"بندر تاسيق سلتن","name:zh":"南湖镇","name:zh-Hans":"南湖镇","name:zh-Hant":"南湖鎮","public_transport":"stop_position","railway":"stop","ref":"SP15","wikidata":"Q4854431","wikipedia":"en:Bandar Tasik Selatan station"},"id":"node/9867662587"},
{"type":"Feature","geometry":{"type":"Point","coordinates":[101.7124086,3.0896257]},"properties":{"@id":"node/9867662588","light_rail":"yes","name":"Bandar Tun Razak","name:en":"Bandar Tun Razak","name:ms":"Bandar Tun Razak","name:ms-Arab":"بندر تون رازق","name:zh":"敦拉萨镇","name:zh-Hans":"敦拉萨镇","name:zh-Hant":"敦拉薩鎮","public_transport":"stop_position","railway":"stop","ref":"SP14","wikidata":"Q4854435","wikipedia":"en:Bandar Tun Razak LRT station"},"id":"node/9867662588"},
{"type":"Feature","geometry":{"type":"Point","coordinates":[101.7198785,3.1428622]},"properties":{"@id":"node/10132470681","name":"Tun Razak Exchange (KG)","name:en":"Tun Razak Exchange","name:ms":"Tun Razak Exchange","name:ms-Arab":"تون رازق ايك س چينج","name:ta":"டன் ரசாக் பரிமாற்றம்","name:zh":"敦拉萨国际贸易中心","name:zh-Hans":"敦拉萨国际贸易中心","name:zh-Hant":"敦拉薩國際貿易中心","public_transport":"stop_position","railway":"stop","ref":"KG20","short_name":"TRX","subway":"yes"},"id":"node/10132470681"},
{"type":"Feature","geometry":{"type":"Point","coordinates":[101.7200268,3.1429072]},"properties":{"@id":"node/10132470682","name":"Tun Razak Exchange (PY)","name:en":"Tun Razak Exchange","name:ms":"Tun Razak Exchange","name:ms-Arab":"تون رازق ايك س چينج","name:ta":"டன் ரசாக் பரிமாற்றம்","name:zh":"敦拉萨国际贸易中心","name:zh-Hans":"敦拉萨国际贸易中心","name:zh-Hant":"敦拉薩國際貿易中心","public_transport":"stop_position","railway":"stop","ref":"PY23","short_name":"TRX","subway":"yes"},"id":"node/10132470682"},
{"type":"Feature","geometry":{"type":"Point","coordinates":[101.6852328,3.1788143]},"properties":{"@id":"node/10211729838","name":"Sentul Barat","name:en":"Sentul Barat","name:ms":"Sentul Barat","name:ms-Arab":"سنتول بارت","name:zh":"冼都西","name:zh-Hans":"冼都西","name:zh-Hant":"冼都西","public_transport":"stop_position","railway":"stop","ref":"PY16","subway":"yes"},"id":"node/10211729838"},
{"type":"Feature","geometry":{"type":"Point","coordinates":[101.685171,3.1787123]},"properties":{"@id":"node/10211729839","name":"Sentul Barat","name:en":"Sentul Barat","name:ms":"Sentul Barat","name:ms-Arab":"سنتول بارت","name:zh":"冼都西","name:zh-Hans":"冼都西","name:zh-Hant":"冼都西","public_transport":"stop_position","railway":"stop","ref":"PY16","subway":"yes"},"id":"node/10211729839"},
{"type":"Feature","geometry":{"type":"Point","coordinates":[101.696394,3.1746912]},"properties":{"@id":"node/10211729840","name":"Titiwangsa (MRT)","name:en":"Titiwangsa (MRT)","name:ms":"Titiwangsa (MRT)","name:ms-Arab":"تيتيوڠسا","name:zh":"蒂蒂旺沙（捷运）","name:zh-Hans":"蒂蒂旺沙（捷运）","name:zh-Hant":"蒂蒂旺沙（捷运）","public_transport":"stop_position","railway":"stop","ref":"PY17","subway":"yes","wikidata":"Q27144","wikipedia":"en:Titiwangsa station"},"id":"node/10211729840"},
{"type":"Feature","geometry":{"type":"Point","coordinates":[101.6964317,3.1745613]},"properties":{"@id":"node/10211729841","name":"Titiwangsa (MRT)","name:en":"Titiwangsa (MRT)","name:ms":"Titiwangsa (MRT)","name:ms-Arab":"تيتيوڠسا","name:zh":"蒂蒂旺沙（捷运）","name:zh-Hans":"蒂蒂旺沙（捷运）","name:zh-Hant":"蒂蒂旺沙（捷运）","public_transport":"stop_position","railway":"stop","ref":"PY17","subway":"yes","wikidata":"Q27144","wikipedia":"en:Titiwangsa station"},"id":"node/10211729841"},
{"type":"Feature","geometry":{"type":"Point","coordinates":[101.701762,3.1741536]},"properties":{"@id":"node/10211729842","name":"Hospital Kuala Lumpur","name:en":"Hospital Kuala Lumpur","name:ms":"Hospital Kuala Lumpur","name:ms-Arab":"هوسڤيتل كوالا لومڤور","name:ta":"கோலாலம்பூர் மருத்துவமனை","name:zh":"吉隆坡医院","name:zh-Hans":"吉隆坡医院","name:zh-Hant":"吉隆坡醫院","public_transport":"stop_position","railway":"stop","ref":"PY18","subway":"yes"},"id":"node/10211729842"},
{"type":"Feature","geometry":{"type":"Point","coordinates":[101.7017019,3.1738933]},"properties":{"@id":"node/10211729843","name":"Hospital Kuala Lumpur","name:en":"Hospital Kuala Lumpur","name:ms":"Hospital Kuala Lumpur","name:ms-Arab":"هوسڤيتل كوالا لومڤور","name:ta":"கோலாலம்பூர் மருத்துவமனை","name:zh":"吉隆坡医院","name:zh-Hans":"吉隆坡医院","name:zh-Hant":"吉隆坡醫院","public_transport":"stop_position","railway":"stop","ref":"PY18","subway":"yes"},"id":"node/10211729843"},
{"type":"Feature","geometry":{"type":"Point","coordinates":[101.7109297,3.1679366]},"properties":{"@id":"node/10211729844","name":"Raja Uda","name:en":"Raja UdaRaja Uda","name:ms":"Raja Uda","name:ms-Arab":"راج اودا","name:zh":"拉惹乌达","name:zh-Hans":"拉惹乌达","name:zh-Hant":"拉惹烏達","public_transport":"stop_position","railway":"stop","ref":"PY19","subway":"yes","wikidata":"Q24884430","wikipedia":"en:Raja Uda MRT station"},"id":"node/10211729844"},
{"type":"Feature","geometry":{"type":"Point","coordinates":[101.7109317,3.167797]},"properties":{"@id":"node/10211729845","name":"Raja Uda","name:en":"Raja Uda","name:ms":"Raja Uda","name:ms-Arab":"راج اودا","name:zh":"拉惹乌达","name:zh-Hans":"拉惹乌达","name:zh-Hant":"拉惹烏達","public_transport":"stop_position","railway":"stop","ref":"PY19","subway":"yes","wikidata":"Q24884430","wikipedia":"en:Raja Uda MRT station"},"id":"node/10211729845"},
{"type":"Feature","geometry":{"type":"Point","coordinates":[101.7180072,3.1617412]},"properties":{"@id":"node/10211729846","name":"Ampang Park","name:en":"Ampang Park","name:ms":"Ampang Park","name:ms-Arab":"امڤاڠ ڤرق","name:zh":"安邦购物中心","name:zh-Hans":"安邦购物中心","name:zh-Hant":"安邦購物中心","public_transport":"stop_position","railway":"stop","ref":"PY20","subway":"yes"},"id":"node/10211729846"},
{"type":"Feature","geometry":{"type":"Point","coordinates":[101.7180106,3.1617428]},"properties":{"@id":"node/10211729847","name":"Ampang Park","name:en":"Ampang Park","name:ms":"Ampang Park","name:ms-Arab":"امڤاڠ ڤرق","name:zh":"安邦购物中心","name:zh-Hans":"安邦购物中心","name:zh-Hant":"安邦購物中心","public_transport":"stop_position","railway":"stop","ref":"PY20","subway":"yes"},"id":"node/10211729847"},
{"type":"Feature","geometry":{"type":"Point","coordinates":[101.7182239,3.1568033]},"properties":{"@id":"node/10211729848","name":"Persiaran KLCC","name:en":"Persiaran KLCC","name:ms":"Persiaran KLCC","name:ms-Arab":"ڤرسيارن كي ايل سي سي","name:zh":"城中城道","name:zh-Hans":"城中城道","name:zh-Hant":"城中城道","public_transport":"stop_position","railway":"stop","ref":"PY21","subway":"yes"},"id":"node/10211729848"},
{"type":"Feature","geometry":{"type":"Point","coordinates":[101.7184784,3.1506598]},"properties":{"@id":"node/10211729849","name":"Conlay","name:en":"Conlay","name:ms":"Conlay","name:ms-Arab":"كونلي","name:zh":"康莱","name:zh-Hans":"康莱","name:zh-Hant":"康萊","public_transport":"stop_position","railway":"stop","ref":"PY22","subway":"yes","wikidata":"Q24884457","wikipedia":"en:Conlay MRT station"},"id":"node/10211729849"},
{"type":"Feature","geometry":{"type":"Point","coordinates":[101.718367,3.1506171]},"properties":{"@id":"node/10211729850","name":"Conlay","name:en":"Conlay","name:ms":"Conlay","name:ms-Arab":"كونلي","name:zh":"康莱","name:zh-Hans":"康莱","name:zh-Hant":"康萊","public_transport":"stop_position","railway":"stop","ref":"PY22","subway":"yes","wikidata":"Q24884457","wikipedia":"en:Conlay MRT station"},"id":"node/10211729850"},
{"type":"Feature","geometry":{"type":"Point","coordinates":[101.7166324,3.1282865]},"properties":{"@id":"node/10211729851","name":"Chan Sow Lin","name:en":"Chan Sow Lin","name:ms":"Chan Sow Lin","name:ms-Arab":"چن ساو لين","name:zh":"陈秀连","name:zh-Hans":"陈秀连","name:zh-Hant":"陳秀連","public_transport":"stop_position","railway":"stop","ref":"PY24","subway":"yes","wikidata":"Q5070372","wikipedia":"en:Chan Sow Lin station"},"id":"node/10211729851"},
{"type":"Feature","geometry":{"type":"Point","coordinates":[101.7164935,3.1283712]},"properties":{"@id":"node/10211729852","name":"Chan Sow Lin","name:en":"Chan Sow Lin","name:ms":"Chan Sow Lin","name:ms-Arab":"چن ساو لين","name:zh":"陈秀连","name:zh-Hans":"陈秀连","name:zh-Hant":"陳秀連","public_transport":"stop_position","railway":"stop","ref":"PY24","subway":"yes","wikidata":"Q5070372","wikipedia":"en:Chan Sow Lin station"},"id":"node/10211729852"},
{"type":"Feature","geometry":{"type":"Point","coordinates":[101.6941916,3.0895853]},"properties":{"@id":"node/10211729853","name":"Kuchai","name:en":"Kuchai","name:ms":"Kuchai","name:ms-Arab":"كوچاي","name:zh":"古仔","name:zh-Hans":"古仔","name:zh-Hant":"古仔","public_transport":"stop_position","railway":"stop","ref":"PY27","subway":"yes"},"id":"node/10211729853"},
{"type":"Feature","geometry":{"type":"Point","coordinates":[101.694011,3.0895945]},"properties":{"@id":"node/10211729854","name":"Kuchai","name:en":"Kuchai","name:ms":"Kuchai","name:ms-Arab":"كوچاي","name:zh":"古仔","name:zh-Hans":"古仔","name:zh-Hant":"古仔","public_transport":"stop_position","railway":"stop","ref":"PY27","subway":"yes"},"id":"node/10211729854"},
{"type":"Feature","geometry":{"type":"Point","coordinates":[101.6996047,3.0777471]},"properties":{"@id":"node/10211729855","name":"Taman Naga Emas","name:en":"Taman Naga Emas","name:ms":"Taman Naga Emas","name:ms-Arab":"تامن ناݢ امس","name:zh":"金龙园","name:zh-Hans":"金龙园","name:zh-Hant":"金龍園","public_transport":"stop_position","railway":"stop","ref":"PY28","subway":"yes","wikidata":"Q24884488","wikipedia":"en:Taman Naga Emas MRT station"},"id":"node/10211729855"},
{"type":"Feature","geometry":{"type":"Point","coordinates":[101.6994826,3.0777006]},"properties":{"@id":"node/10211729856","name":"Taman Naga Emas","name:en":"Taman Naga Emas","name:ms":"Taman Naga Emas","name:ms-Arab":"تامن ناݢ امس","name:zh":"金龙园","name:zh-Hans":"金龙园","name:zh-Hant":"金龍園","public_transport":"stop_position","railway":"stop","ref":"PY28","subway":"yes","wikidata":"Q24884488","wikipedia":"en:Taman Naga Emas MRT station"},"id":"node/10211729856"},
{"type":"Feature","geometry":{"type":"Point","coordinates":[101.7084244,3.0638445]},"properties":{"@id":"node/10211729857","name":"Sungai Besi","name:en":"Sungai Besi","name:ms":"Sungai Besi","name:ms-Arab":"سوڠاي بسي","name:zh":"新街场","name:zh-Hans":"新街场","name:zh-Hant":"新街場","public_transport":"stop_position","railway":"stop","ref":"PY29","subway":"yes","wikidata":"Q7640133","wikipedia":"en:Sungai Besi station"},"id":"node/10211729857"},
{"type":"Feature","geometry":{"type":"Point","coordinates":[101.7083805,3.0638443]},"properties":{"@id":"node/10211729858","name":"Sungai Besi","name:en":"Sungai Besi","name:ms":"Sungai Besi","name:ms-Arab":"سوڠاي بسي","name:zh":"新街场","name:zh-Hans":"新街场","name:zh-Hant":"新街場","public_transport":"stop_position","railway":"stop","ref":"PY29","subway":"yes","wikidata":"Q7640133","wikipedia":"en:Sungai Besi station"},"id":"node/10211729858"},
{"type":"Feature","geometry":{"type":"Point","coordinates":[101.7050072,3.0416997]},"properties":{"@id":"node/10211729859","name":"Serdang Raya Utara","name:ms":"Serdang Raya Utara","name:zh":"沙登拉也北","name:zh-Hans":"沙登拉也北","name:zh-Hant":"沙登拉也北","public_transport":"stop_position","railway":"stop","ref":"PY31","subway":"yes","wikidata":"Q24884511","wikipedia":"en:Serdang Raya Utara MRT station"},"id":"node/10211729859"},
{"type":"Feature","geometry":{"type":"Point","coordinates":[101.7048624,3.0417215]},"properties":{"@id":"node/10211729860","name":"Serdang Raya Utara","name:ms":"Serdang Raya Utara","name:zh":"沙登拉也北","name:zh-Hans":"沙登拉也北","name:zh-Hant":"沙登拉也北","public_transport":"stop_position","railway":"stop","ref":"PY31","subway":"yes","wikidata":"Q24884511","wikipedia":"en:Serdang Raya Utara MRT station"},"id":"node/10211729860"},
{"type":"Feature","geometry":{"type":"Point","coordinates":[101.7090047,3.0215373]},"properties":{"@id":"node/10211729869","name":"Serdang Jaya","name:en":"Serdang Jaya","name:ms":"Serdang Jaya","name:zh":"沙登再也","name:zh-Hans":"沙登再也","name:zh-Hant":"沙登再也","public_transport":"stop_position","railway":"stop","ref":"PY33","subway":"yes"},"id":"node/10211729869"},
{"type":"Feature","geometry":{"type":"Point","coordinates":[101.7088815,3.021537]},"properties":{"@id":"node/10211729870","name":"Serdang Jaya","name:en":"Serdang Jaya","name:ms":"Serdang Jaya","name:zh":"沙登再也","name:zh-Hans":"沙登再也","name:zh-Hant":"沙登再也","public_transport":"stop_position","railway":"stop","ref":"PY33","subway":"yes"},"id":"node/10211729870"},
{"type":"Feature","geometry":{"type":"Point","coordinates":[101.7053906,3.0084403]},"properties":{"@id":"node/10211729871","name":"UPM","name:en":"UPM","name:ms":"UPM","name:zh":"博特拉大学","name:zh-Hans":"博特拉大学","name:zh-Hant":"博特拉大學","public_transport":"stop_position","railway":"stop","ref":"PY34","subway":"yes"},"id":"node/10211729871"},
{"type":"Feature","geometry":{"type":"Point","coordinates":[101.7053919,3.0085773]},"properties":{"@id":"node/10211729872","name":"UPM","name:en":"UPM","name:ms":"UPM","name:zh":"博特拉大学","name:zh-Hans":"博特拉大学","name:zh-Hant":"博特拉大學","public_transport":"stop_position","railway":"stop","ref":"PY34","subway":"yes"},"id":"node/10211729872"},
{"type":"Feature","geometry":{"type":"Point","coordinates":[101.6726434,2.9892972]},"properties":{"@id":"node/10211729873","name":"Taman Equine","name:en":"Equine Park","name:ms":"Taman Equine","name:zh":"怡观园","name:zh-Hans":"怡观园","name:zh-Hant":"怡觀園","public_transport":"stop_position","railway":"stop","ref":"PY36","subway":"yes"},"id":"node/10211729873"},
{"type":"Feature","geometry":{"type":"Point","coordinates":[101.672542,2.9894052]},"properties":{"@id":"node/10211729874","name":"Taman Equine","name:en":"Equine Park","name:ms":"Taman Equine","name:zh":"怡观园","name:zh-Hans":"怡观园","name:zh-Hant":"怡觀園","public_transport":"stop_position","railway":"stop","ref":"PY36","subway":"yes"},"id":"node/10211729874"},
{"type":"Feature","geometry":{"type":"Point","coordinates":[101.6606113,2.9830473]},"properties":{"@id":"node/10211729875","name":"Putra Permai","name:en":"Putra Permai","name:ms":"Putra Permai","name:zh":"布特拉柏迈","name:zh-Hans":"布特拉柏迈","name:zh-Hant":"布特拉柏邁路","public_transport":"stop_position","railway":"stop","ref":"PY37","subway":"yes"},"id":"node/10211729875"},
{"type":"Feature","geometry":{"type":"Point","coordinates":[101.6605458,2.9831751]},"properties":{"@id":"node/10211729876","name":"Putra Permai","name:en":"Putra Permai","name:ms":"Putra Permai","name:zh":"布特拉柏迈","name:zh-Hans":"布特拉柏迈","name:zh-Hant":"布特拉柏邁路","public_transport":"stop_position","railway":"stop","ref":"PY37","subway":"yes"},"id":"node/10211729876"},
{"type":"Feature","geometry":{"type":"Point","coordinates":[101.6549036,2.9652614]},"properties":{"@id":"node/10211729877","name":"16 Sierra","name:en":"16 Sierra","name:zh":"16岭","name:zh-Hans":"16岭","name:zh-Hant":"16嶺","public_transport":"stop_position","railway":"stop","ref":"PY38","subway":"yes"},"id":"node/10211729877"},
{"type":"Feature","geometry":{"type":"Point","coordinates":[101.654777,2.9652723]},"properties":{"@id":"node/10211729878","name":"16 Sierra","name:en":"16 Sierra","name:zh":"16岭","name:zh-Hans":"16岭","name:zh-Hant":"16嶺","public_transport":"stop_position","railway":"stop","ref":"PY38","subway":"yes"},"id":"node/10211729878"},
{"type":"Feature","geometry":{"type":"Point","coordinates":[101.657568,2.9492412]},"properties":{"@id":"node/10211729879","name":"Cyberjaya Utara","name:en":"Cyberjaya Utara","name:ms":"Cyberjaya Utara","name:zh":"赛城北","name:zh-Hans":"赛城北","name:zh-Hant":"賽城北","public_transport":"stop_position","railway":"stop","ref":"PY39","subway":"yes","wikidata":"Q24884593","wikipedia":"en:Cyberjaya Utara MRT station"},"id":"node/10211729879"},
{"type":"Feature","geometry":{"type":"Point","coordinates":[101.6574277,2.9492091]},"properties":{"@id":"node/10211729880","name":"Cyberjaya Utara","name:en":"Cyberjaya Utara","name:ms":"Cyberjaya Utara","name:zh":"赛城北","name:zh-Hans":"赛城北","name:zh-Hant":"賽城北","public_transport":"stop_position","railway":"stop","ref":"PY39","subway":"yes","wikidata":"Q24884593","wikipedia":"en:Cyberjaya Utara MRT station"},"id":"node/10211729880"},
{"type":"Feature","geometry":{"type":"Point","coordinates":[101.671549,2.9313738]},"properties":{"@id":"node/10211729881","name":"Putrajaya Sentral","name:ms":"Putrajaya Sentral","name:zh":"布城中央车站","name:zh-Hans":"布城中央车站","name:zh-Hant":"布城中央車站","public_transport":"stop_position","railway":"stop","ref":"PY41","subway":"yes","wikidata":"Q4207481","wikipedia":"en:Putrajaya Sentral"},"id":"node/10211729881"},
{"type":"Feature","geometry":{"type":"Point","coordinates":[101.671383,2.9314012]},"properties":{"@id":"node/10211729882","name":"Putrajaya Sentral","name:ms":"Putrajaya Sentral","name:zh":"布城中央车站","name:zh-Hans":"布城中央车站","name:zh-Hant":"布城中央車站","public_transport":"stop_position","railway":"stop","ref":"PY41","subway":"yes","wikidata":"Q4207481","wikipedia":"en:Putrajaya Sentral"},"id":"node/10211729882"},
{"type":"Feature","geometry":{"type":"Point","coordinates":[101.5491547,3.0798699]},"properties":{"@id":"node/10591412621","light_rail":"yes","name":"Stadium Shah Alam","name:en":"Stadium Shah Alam","name:ms":"Stadium Shah Alam","public_transport":"stop_position","railway":"stop","ref":"SA10"},"id":"node/10591412621"},
{"type":"Feature","geometry":{"type":"Point","coordinates":[101.5886941,3.0951144]},"properties":{"@id":"node/10591412675","light_rail":"yes","name":"Glenmarie 2","name:ms":"Glenmarie 2","public_transport":"stop_position","railway":"stop","ref":"SA8"},"id":"node/10591412675"},
{"type":"Feature","geometry":{"type":"Point","coordinates":[101.5911807,3.1060825]},"properties":{"@id":"node/10591412694","light_rail":"yes","name":"SS7","name:en":"SS7","name:ms":"SS7","public_transport":"stop_position","railway":"stop","ref":"SA6"},"id":"node/10591412694"},
{"type":"Feature","geometry":{"type":"Point","coordinates":[101.6046594,3.1334473]},"properties":{"@id":"node/10591412710","light_rail":"yes","name":"BU11","name:en":"BU11","name:ms":"BU11","public_transport":"stop_position","railway":"stop","ref":"SA3"},"id":"node/10591412710"},
{"type":"Feature","geometry":{"type":"Point","coordinates":[101.6046388,3.133333]},"properties":{"@id":"node/10591412723","light_rail":"yes","name":"BU11","name:en":"BU11","name:ms":"BU11","public_transport":"stop_position","railway":"stop","ref":"SA3"},"id":"node/10591412723"},
{"type":"Feature","geometry":{"type":"Point","coordinates":[101.4593038,2.9763664]},"properties":{"@id":"node/10605496579","light_rail":"yes","name":"Johan Setia","name:ms":"Johan Setia","public_transport":"stop_position","railway":"stop","ref":"SA26"},"id":"node/10605496579"},
{"type":"Feature","geometry":{"type":"Point","coordinates":[101.4594127,2.9764342]},"properties":{"@id":"node/10605496580","light_rail":"yes","name":"Johan Setia","name:ms":"Johan Setia","public_transport":"stop_position","railway":"stop","ref":"SA26"},"id":"node/10605496580"},
{"type":"Feature","geometry":{"type":"Point","coordinates":[101.4460791,2.9932154]},"properties":{"@id":"node/10605496581","light_rail":"yes","name":"Bandar Bukit Tinggi","name:ms":"Bandar Bukit Tinggi","public_transport":"stop_position","railway":"stop","ref":"SA24","wikidata":"Q20312414","wikipedia":"en:Bandar Bukit Tinggi LRT station"},"id":"node/10605496581"},
{"type":"Feature","geometry":{"type":"Point","coordinates":[101.4459616,2.9931685]},"properties":{"@id":"node/10605496582","light_rail":"yes","name":"Bandar Bukit Tinggi","name:ms":"Bandar Bukit Tinggi","public_transport":"stop_position","railway":"stop","ref":"SA24","wikidata":"Q20312414","wikipedia":"en:Bandar Bukit Tinggi LRT station"},"id":"node/10605496582"},
{"type":"Feature","geometry":{"type":"Point","coordinates":[101.4419646,3.0054448]},"properties":{"@id":"node/10605496583","light_rail":"yes","name":"Klang Jaya","name:en":"Klang Jaya","name:ms":"Klang Jaya","public_transport":"stop_position","railway":"stop","ref":"SA23","wikidata":"Q21006103","wikipedia":"en:Klang Jaya LRT station"},"id":"node/10605496583"},
{"type":"Feature","geometry":{"type":"Point","coordinates":[101.4418774,3.0054418]},"properties":{"@id":"node/10605496584","light_rail":"yes","name":"Klang Jaya","name:en":"Klang Jaya","name:ms":"Klang Jaya","public_transport":"stop_position","railway":"stop","ref":"SA23","wikidata":"Q21006103","wikipedia":"en:Klang Jaya LRT station"},"id":"node/10605496584"},
{"type":"Feature","geometry":{"type":"Point","coordinates":[101.440766,3.0160671]},"properties":{"@id":"node/10605496585","light_rail":"yes","name":"Sri Andalas","name:en":"Sri Andalas","name:ms":"Sri Andalas","public_transport":"stop_position","railway":"stop","ref":"SA22"},"id":"node/10605496585"},
{"type":"Feature","geometry":{"type":"Point","coordinates":[101.4407261,3.016073]},"properties":{"@id":"node/10605496586","light_rail":"yes","name":"Sri Andalas","name:en":"Sri Andalas","name:ms":"Sri Andalas","public_transport":"stop_position","railway":"stop","ref":"SA22"},"id":"node/10605496586"},
{"type":"Feature","geometry":{"type":"Point","coordinates":[101.4423378,3.0268463]},"properties":{"@id":"node/10605496587","light_rail":"yes","name":"Taman Selatan","name:ms":"Taman Selatan","public_transport":"stop_position","railway":"stop","ref":"SA21"},"id":"node/10605496587"},
{"type":"Feature","geometry":{"type":"Point","coordinates":[101.4424547,3.0268686]},"properties":{"@id":"node/10605496588","light_rail":"yes","name":"Taman Selatan","name:ms":"Taman Selatan","public_transport":"stop_position","railway":"stop","ref":"SA21"},"id":"node/10605496588"},
{"type":"Feature","geometry":{"type":"Point","coordinates":[101.4475357,3.0474217]},"properties":{"@id":"node/10605496589","light_rail":"yes","name":"Pasar Jawa","name:ms":"Pasar Jawa","public_transport":"stop_position","railway":"stop","ref":"SA20","wikidata":"Q108044319","wikipedia":"en:Pasar Jawa LRT station"},"id":"node/10605496589"},
{"type":"Feature","geometry":{"type":"Point","coordinates":[101.4475044,3.0474368]},"properties":{"@id":"node/10605496590","light_rail":"yes","name":"Pasar Jawa","name:ms":"Pasar Jawa","public_transport":"stop_position","railway":"stop","ref":"SA20","wikidata":"Q108044319","wikipedia":"en:Pasar Jawa LRT station"},"id":"node/10605496590"},
{"type":"Feature","geometry":{"type":"Point","coordinates":[101.4520679,3.0590795]},"properties":{"@id":"node/10605496591","light_rail":"yes","name":"Jalan Meru","name:en":"Jalan Meru","name:ms":"Jalan Meru","public_transport":"stop_position","railway":"stop","ref":"SA19"},"id":"node/10605496591"},
{"type":"Feature","geometry":{"type":"Point","coordinates":[101.4520384,3.0590888]},"properties":{"@id":"node/10605496592","light_rail":"yes","name":"Jalan Meru","name:en":"Jalan Meru","name:ms":"Jalan Meru","public_transport":"stop_position","railway":"stop","ref":"SA19"},"id":"node/10605496592"},
{"type":"Feature","geometry":{"type":"Point","coordinates":[101.4508584,3.067932]},"properties":{"@id":"node/10605496593","light_rail":"yes","name":"Pasar Klang","public_transport":"stop_position","railway":"stop","ref":"SA18"},"id":"node/10605496593"},
{"type":"Feature","geometry":{"type":"Point","coordinates":[101.4508251,3.0679254]},"properties":{"@id":"node/10605496594","light_rail":"yes","name":"Pasar Klang","public_transport":"stop_position","railway":"stop","ref":"SA18"},"id":"node/10605496594"},
{"type":"Feature","geometry":{"type":"Point","coordinates":[101.4659294,3.0626167]},"properties":{"@id":"node/10605496595","light_rail":"yes","name":"Bandar Baru Klang","name:en":"Klang New Town","name:ms":"Bandar Baru Klang","public_transport":"stop_position","railway":"stop","ref":"SA17"},"id":"node/10605496595"},
{"type":"Feature","geometry":{"type":"Point","coordinates":[101.4659324,3.0627503]},"properties":{"@id":"node/10605496596","light_rail":"yes","name":"Bandar Baru Klang","name:en":"Klang New Town","name:ms":"Bandar Baru Klang","public_transport":"stop_position","railway":"stop","ref":"SA17"},"id":"node/10605496596"},
{"type":"Feature","geometry":{"type":"Point","coordinates":[101.4870124,3.0674373]},"properties":{"@id":"node/10605496597","light_rail":"yes","name":"Seksyen 7 Shah Alam","name:en":"Shah Alam Section 7","name:ms":"Seksyen 7 Shah Alam","public_transport":"stop_position","railway":"stop","ref":"SA15"},"id":"node/10605496597"},
{"type":"Feature","geometry":{"type":"Point","coordinates":[101.4870126,3.0674826]},"properties":{"@id":"node/10605496598","light_rail":"yes","name":"Seksyen 7 Shah Alam","name:en":"Shah Alam Section 7","name:ms":"Seksyen 7 Shah Alam","public_transport":"stop_position","railway":"stop","ref":"SA15"},"id":"node/10605496598"},
{"type":"Feature","geometry":{"type":"Point","coordinates":[101.5012281,3.0627092]},"properties":{"@id":"node/10605496599","light_rail":"yes","name":"UiTM Shah Alam","name:en":"UiTM Shah Alam","name:ms":"UiTM Shah Alam","public_transport":"stop_position","railway":"stop","ref":"SA14"},"id":"node/10605496599"},
{"type":"Feature","geometry":{"type":"Point","coordinates":[101.5012334,3.06284]},"properties":{"@id":"node/10605496600","light_rail":"yes","name":"UiTM Shah Alam","name:en":"UiTM Shah Alam","name:ms":"UiTM Shah Alam","public_transport":"stop_position","railway":"stop","ref":"SA14"},"id":"node/10605496600"},
{"type":"Feature","geometry":{"type":"Point","coordinates":[101.5211283,3.0698731]},"properties":{"@id":"node/10605496603","light_rail":"yes","name":"Dato' Menteri","name:en":"Dato' Menteri","name:ms":"Dato' Menteri","public_transport":"stop_position","railway":"stop","ref":"SA12"},"id":"node/10605496603"},
{"type":"Feature","geometry":{"type":"Point","coordinates":[101.5211284,3.0699042]},"properties":{"@id":"node/10605496604","light_rail":"yes","name":"Dato' Menteri","name:en":"Dato' Menteri","name:ms":"Dato' Menteri","public_transport":"stop_position","railway":"stop","ref":"SA12"},"id":"node/10605496604"},
{"type":"Feature","geometry":{"type":"Point","coordinates":[101.5619677,3.0823475]},"properties":{"@id":"node/10605504105","light_rail":"yes","name":"Kerjaya","name:en":"Kerjaya","name:ms":"Kerjaya","public_transport":"stop_position","railway":"stop","ref":"SA9"},"id":"node/10605504105"},
{"type":"Feature","geometry":{"type":"Point","coordinates":[101.5619731,3.0822994]},"properties":{"@id":"node/10605504106","light_rail":"yes","name":"Kerjaya","name:en":"Kerjaya","name:ms":"Kerjaya","public_transport":"stop_position","railway":"stop","ref":"SA9"},"id":"node/10605504106"},
{"type":"Feature","geometry":{"type":"Point","coordinates":[101.5942001,3.1227629]},"properties":{"@id":"node/10605504107","light_rail":"yes","name":"Damansara Idaman","name:en":"Damansara Idaman","name:ms":"Damansara Idaman","public_transport":"stop_position","railway":"stop","ref":"SA5","wikidata":"Q24886573","wikipedia":"en:Damansara Idaman LRT station"},"id":"node/10605504107"},
{"type":"Feature","geometry":{"type":"Point","coordinates":[101.5942501,3.1227492]},"properties":{"@id":"node/10605504108","light_rail":"yes","name":"Damansara Idaman","name:en":"Damansara Idaman","name:ms":"Damansara Idaman","public_transport":"stop_position","railway":"stop","ref":"SA5","wikidata":"Q24886573","wikipedia":"en:Damansara Idaman LRT station"},"id":"node/10605504108"},
{"type":"Feature","geometry":{"type":"Point","coordinates":[101.6166726,3.1348389]},"properties":{"@id":"node/10605504109","light_rail":"yes","name":"Kayu Ara","name:en":"Kayu Ara","name:ms":"Kayu Ara","public_transport":"stop_position","railway":"stop","ref":"SA2"},"id":"node/10605504109"},
{"type":"Feature","geometry":{"type":"Point","coordinates":[101.6168,3.1348019]},"properties":{"@id":"node/10605504110","light_rail":"yes","name":"Kayu Ara","name:en":"Kayu Ara","name:ms":"Kayu Ara","public_transport":"stop_position","railway":"stop","ref":"SA2"},"id":"node/10605504110"},
{"type":"Feature","geometry":{"type":"Point","coordinates":[101.6188601,3.1449108]},"properties":{"@id":"node/10605504111","light_rail":"yes","name":"Bandar Utama","name:ms":"Bandar Utama","public_transport":"stop_position","railway":"stop","ref":"SA1"},"id":"node/10605504111"},
{"type":"Feature","geometry":{"type":"Point","coordinates":[101.6189291,3.1448229]},"properties":{"@id":"node/10605504112","light_rail":"yes","name":"Bandar Utama","name:ms":"Bandar Utama","public_transport":"stop_position","railway":"stop","ref":"SA1"},"id":"node/10605504112"},
{"type":"Feature","geometry":{"type":"Point","coordinates":[101.642981,3.1293782]},"properties":{"@id":"node/12999633022","name":"Phileo Damansara","name:en":"Phileo Damansara","name:ms":"Phileo Damansara","name:ms-Arab":"فيليو دامنسارا","name:zh":"菲利欧白沙罗","name:zh-Hans":"菲利欧白沙罗","name:zh-Hant":"菲利歐白沙羅","network":"Kajang Line","public_transport":"stop_position","railway":"stop","ref":"KG12","subway":"yes"},"id":"node/12999633022"}
]}